{
    "type": "Feature",
    "geometry": {
        "type": "MultiPolygon",
        "coordinates": [
            [
                [
                    [
                        -116.814182,
                        50.270049
                    ],
                    [
                        -116.816851,
                        50.277952
                    ],
                    [
                        -116.83138,
                        50.270332
                    ],
                    [
                        -116.878133,
                        50.267853
                    ],
                    [
                        -116.89869,
                        50.246147
                    ],
                    [
                        -116.918001,
                        50.246866
                    ],
                    [
                        -116.925466,
                        50.260545
                    ],
                    [
                        -116.942671,
                        50.249105
                    ],
                    [
                        -116.948532,
                        50.249726
                    ],
                    [
                        -116.949953,
                        50.25725
                    ],
                    [
                        -116.956616,
                        50.256641
                    ],
                    [
                        -116.956009,
                        50.239717
                    ],
                    [
                        -116.971159,
                        50.248098
                    ],
                    [
                        -116.975646,
                        50.236629
                    ],
                    [
                        -116.972244,
                        50.225544
                    ],
                    [
                        -116.977589,
                        50.220164
                    ],
                    [
                        -116.98602,
                        50.219141
                    ],
                    [
                        -117.02053,
                        50.248894
                    ],
                    [
                        -117.071903,
                        50.241932
                    ],
                    [
                        -117.061028,
                        50.210027
                    ],
                    [
                        -117.062394,
                        50.187409
                    ],
                    [
                        -117.045332,
                        50.157284
                    ],
                    [
                        -117.044361,
                        50.142872
                    ],
                    [
                        -117.037305,
                        50.134481
                    ],
                    [
                        -117.036886,
                        50.108842
                    ],
                    [
                        -117.016733,
                        50.073014
                    ],
                    [
                        -117.001726,
                        50.004995
                    ],
                    [
                        -116.999056,
                        50.000036
                    ],
                    [
                        -116.990277,
                        49.999982
                    ],
                    [
                        -116.992164,
                        49.993625
                    ],
                    [
                        -117.05462,
                        50.012604
                    ],
                    [
                        -117.053755,
                        50.0154
                    ],
                    [
                        -117.067587,
                        50.019909
                    ],
                    [
                        -117.060485,
                        50.031214
                    ],
                    [
                        -117.070223,
                        50.034769
                    ],
                    [
                        -117.07502,
                        50.032524
                    ],
                    [
                        -117.088622,
                        50.040076
                    ],
                    [
                        -117.178266,
                        50.062499
                    ],
                    [
                        -117.19089,
                        50.048721
                    ],
                    [
                        -117.199994,
                        50.050387
                    ],
                    [
                        -117.200521,
                        50.055096
                    ],
                    [
                        -117.204308,
                        50.048727
                    ],
                    [
                        -117.203025,
                        50.040075
                    ],
                    [
                        -117.183517,
                        50.025265
                    ],
                    [
                        -117.178071,
                        50.014453
                    ],
                    [
                        -117.185543,
                        49.998013
                    ],
                    [
                        -117.18032,
                        49.98931
                    ],
                    [
                        -117.14632,
                        49.983676
                    ],
                    [
                        -117.132345,
                        49.970779
                    ],
                    [
                        -117.128069,
                        49.949548
                    ],
                    [
                        -117.136338,
                        49.943337
                    ],
                    [
                        -117.138213,
                        49.934124
                    ],
                    [
                        -117.124467,
                        49.928382
                    ],
                    [
                        -117.128959,
                        49.922238
                    ],
                    [
                        -117.122678,
                        49.90666
                    ],
                    [
                        -117.125014,
                        49.900015
                    ],
                    [
                        -117.101262,
                        49.885082
                    ],
                    [
                        -117.089192,
                        49.88225
                    ],
                    [
                        -117.086549,
                        49.87196
                    ],
                    [
                        -117.060905,
                        49.85217
                    ],
                    [
                        -117.074199,
                        49.835192
                    ],
                    [
                        -117.086297,
                        49.82956
                    ],
                    [
                        -117.105494,
                        49.828313
                    ],
                    [
                        -117.101351,
                        49.815995
                    ],
                    [
                        -117.12383,
                        49.817007
                    ],
                    [
                        -117.13488,
                        49.808157
                    ],
                    [
                        -117.136869,
                        49.79996
                    ],
                    [
                        -117.143951,
                        49.798355
                    ],
                    [
                        -117.139704,
                        49.786159
                    ],
                    [
                        -117.118293,
                        49.770158
                    ],
                    [
                        -117.120994,
                        49.761066
                    ],
                    [
                        -117.135635,
                        49.759878
                    ],
                    [
                        -117.144452,
                        49.746828
                    ],
                    [
                        -117.168489,
                        49.759798
                    ],
                    [
                        -117.183027,
                        49.75914
                    ],
                    [
                        -117.194831,
                        49.752673
                    ],
                    [
                        -117.191624,
                        49.743669
                    ],
                    [
                        -117.20001,
                        49.719224
                    ],
                    [
                        -117.184415,
                        49.686947
                    ],
                    [
                        -117.175254,
                        49.683883
                    ],
                    [
                        -117.175973,
                        49.677265
                    ],
                    [
                        -117.167278,
                        49.67111
                    ],
                    [
                        -117.16636,
                        49.648138
                    ],
                    [
                        -117.16016,
                        49.642951
                    ],
                    [
                        -117.184229,
                        49.636249
                    ],
                    [
                        -117.200587,
                        49.644838
                    ],
                    [
                        -117.23694,
                        49.692904
                    ],
                    [
                        -117.256057,
                        49.685838
                    ],
                    [
                        -117.2698,
                        49.692727
                    ],
                    [
                        -117.278989,
                        49.692429
                    ],
                    [
                        -117.294613,
                        49.68381
                    ],
                    [
                        -117.317653,
                        49.678451
                    ],
                    [
                        -117.313663,
                        49.64958
                    ],
                    [
                        -117.322568,
                        49.625383
                    ],
                    [
                        -117.333361,
                        49.626289
                    ],
                    [
                        -117.343573,
                        49.62171
                    ],
                    [
                        -117.359658,
                        49.627194
                    ],
                    [
                        -117.375002,
                        49.625038
                    ],
                    [
                        -117.393069,
                        49.635024
                    ],
                    [
                        -117.403625,
                        49.621085
                    ],
                    [
                        -117.431084,
                        49.610501
                    ],
                    [
                        -117.427499,
                        49.601704
                    ],
                    [
                        -117.415775,
                        49.597495
                    ],
                    [
                        -117.415866,
                        49.584758
                    ],
                    [
                        -117.435635,
                        49.587464
                    ],
                    [
                        -117.44689,
                        49.577585
                    ],
                    [
                        -117.464773,
                        49.577042
                    ],
                    [
                        -117.476283,
                        49.569021
                    ],
                    [
                        -117.484878,
                        49.575045
                    ],
                    [
                        -117.498975,
                        49.575313
                    ],
                    [
                        -117.512483,
                        49.5562
                    ],
                    [
                        -117.491835,
                        49.543463
                    ],
                    [
                        -117.49401,
                        49.511073
                    ],
                    [
                        -117.4787,
                        49.488793
                    ],
                    [
                        -117.479516,
                        49.477654
                    ],
                    [
                        -117.463749,
                        49.464459
                    ],
                    [
                        -117.466306,
                        49.439496
                    ],
                    [
                        -117.434178,
                        49.42477
                    ],
                    [
                        -117.413435,
                        49.423954
                    ],
                    [
                        -117.400392,
                        49.417484
                    ],
                    [
                        -117.388015,
                        49.409062
                    ],
                    [
                        -117.376413,
                        49.392428
                    ],
                    [
                        -117.347839,
                        49.400395
                    ],
                    [
                        -117.332111,
                        49.411907
                    ],
                    [
                        -117.316325,
                        49.405846
                    ],
                    [
                        -117.300015,
                        49.4185
                    ],
                    [
                        -117.272826,
                        49.419104
                    ],
                    [
                        -117.254547,
                        49.406836
                    ],
                    [
                        -117.237385,
                        49.408804
                    ],
                    [
                        -117.22326,
                        49.420578
                    ],
                    [
                        -117.210652,
                        49.424017
                    ],
                    [
                        -117.210752,
                        49.435206
                    ],
                    [
                        -117.200648,
                        49.438716
                    ],
                    [
                        -117.192078,
                        49.456719
                    ],
                    [
                        -117.153773,
                        49.468767
                    ],
                    [
                        -117.14247,
                        49.451036
                    ],
                    [
                        -117.119946,
                        49.439564
                    ],
                    [
                        -117.120118,
                        49.432981
                    ],
                    [
                        -117.087061,
                        49.416381
                    ],
                    [
                        -117.07416,
                        49.426838
                    ],
                    [
                        -117.052296,
                        49.42682
                    ],
                    [
                        -117.036083,
                        49.436912
                    ],
                    [
                        -117.026897,
                        49.435465
                    ],
                    [
                        -117.014784,
                        49.438976
                    ],
                    [
                        -117.005713,
                        49.446726
                    ],
                    [
                        -116.987162,
                        49.444482
                    ],
                    [
                        -116.984346,
                        49.459044
                    ],
                    [
                        -116.974754,
                        49.463931
                    ],
                    [
                        -116.974103,
                        49.472683
                    ],
                    [
                        -117.008296,
                        49.498437
                    ],
                    [
                        -117.018514,
                        49.500689
                    ],
                    [
                        -117.032702,
                        49.497727
                    ],
                    [
                        -117.04338,
                        49.507489
                    ],
                    [
                        -117.006988,
                        49.50848
                    ],
                    [
                        -116.999989,
                        49.522268
                    ],
                    [
                        -116.989431,
                        49.525635
                    ],
                    [
                        -116.984077,
                        49.536342
                    ],
                    [
                        -116.979362,
                        49.535945
                    ],
                    [
                        -116.980189,
                        49.53095
                    ],
                    [
                        -116.973084,
                        49.525621
                    ],
                    [
                        -116.949101,
                        49.528542
                    ],
                    [
                        -116.941674,
                        49.516135
                    ],
                    [
                        -116.940025,
                        49.492646
                    ],
                    [
                        -116.953602,
                        49.487534
                    ],
                    [
                        -116.947086,
                        49.481486
                    ],
                    [
                        -116.947974,
                        49.470163
                    ],
                    [
                        -116.928681,
                        49.459438
                    ],
                    [
                        -116.923583,
                        49.436149
                    ],
                    [
                        -116.945762,
                        49.414561
                    ],
                    [
                        -116.990711,
                        49.405363
                    ],
                    [
                        -116.990281,
                        49.387624
                    ],
                    [
                        -116.996176,
                        49.381522
                    ],
                    [
                        -116.962234,
                        49.367184
                    ],
                    [
                        -116.858019,
                        49.352175
                    ],
                    [
                        -116.844235,
                        49.340783
                    ],
                    [
                        -116.856924,
                        49.33075
                    ],
                    [
                        -116.857192,
                        49.322827
                    ],
                    [
                        -116.902251,
                        49.323468
                    ],
                    [
                        -116.924706,
                        49.313119
                    ],
                    [
                        -116.9237,
                        49.306479
                    ],
                    [
                        -116.924951,
                        49.304733
                    ],
                    [
                        -116.927785,
                        49.316082
                    ],
                    [
                        -116.933725,
                        49.31997
                    ],
                    [
                        -116.958471,
                        49.31529
                    ],
                    [
                        -116.931885,
                        49.278245
                    ],
                    [
                        -116.950665,
                        49.265635
                    ],
                    [
                        -116.958829,
                        49.254359
                    ],
                    [
                        -116.950846,
                        49.252843
                    ],
                    [
                        -116.936717,
                        49.239997
                    ],
                    [
                        -116.935822,
                        49.233143
                    ],
                    [
                        -116.928392,
                        49.227965
                    ],
                    [
                        -116.929822,
                        49.215117
                    ],
                    [
                        -116.919741,
                        49.211504
                    ],
                    [
                        -116.917528,
                        49.202159
                    ],
                    [
                        -116.910986,
                        49.200008
                    ],
                    [
                        -116.909477,
                        49.206346
                    ],
                    [
                        -116.898555,
                        49.205366
                    ],
                    [
                        -116.898988,
                        49.213496
                    ],
                    [
                        -116.892991,
                        49.197756
                    ],
                    [
                        -116.886063,
                        49.198861
                    ],
                    [
                        -116.886038,
                        49.211843
                    ],
                    [
                        -116.881825,
                        49.201886
                    ],
                    [
                        -116.870649,
                        49.20585
                    ],
                    [
                        -116.861454,
                        49.203201
                    ],
                    [
                        -116.822095,
                        49.163778
                    ],
                    [
                        -116.807216,
                        49.157833
                    ],
                    [
                        -116.807471,
                        49.150113
                    ],
                    [
                        -116.80046,
                        49.14366
                    ],
                    [
                        -116.803117,
                        49.133018
                    ],
                    [
                        -116.795625,
                        49.124032
                    ],
                    [
                        -116.798392,
                        49.118147
                    ],
                    [
                        -116.831561,
                        49.103123
                    ],
                    [
                        -116.833211,
                        49.074253
                    ],
                    [
                        -116.856614,
                        49.06908
                    ],
                    [
                        -116.873269,
                        49.044816
                    ],
                    [
                        -116.884836,
                        49.042609
                    ],
                    [
                        -116.889081,
                        49.034836
                    ],
                    [
                        -116.905009,
                        49.03556
                    ],
                    [
                        -116.909853,
                        49.031578
                    ],
                    [
                        -116.914167,
                        49.000014
                    ],
                    [
                        -116.391364,
                        49.000009
                    ],
                    [
                        -116.397505,
                        49.003716
                    ],
                    [
                        -116.392144,
                        49.011719
                    ],
                    [
                        -116.393289,
                        49.023857
                    ],
                    [
                        -116.400019,
                        49.030042
                    ],
                    [
                        -116.39875,
                        49.04083
                    ],
                    [
                        -116.371376,
                        49.078179
                    ],
                    [
                        -116.377846,
                        49.092121
                    ],
                    [
                        -116.364142,
                        49.108407
                    ],
                    [
                        -116.359989,
                        49.130765
                    ],
                    [
                        -116.347013,
                        49.140726
                    ],
                    [
                        -116.351334,
                        49.156683
                    ],
                    [
                        -116.344316,
                        49.166767
                    ],
                    [
                        -116.353528,
                        49.169025
                    ],
                    [
                        -116.366291,
                        49.181751
                    ],
                    [
                        -116.38625,
                        49.18397
                    ],
                    [
                        -116.405502,
                        49.180549
                    ],
                    [
                        -116.410561,
                        49.188785
                    ],
                    [
                        -116.401054,
                        49.207829
                    ],
                    [
                        -116.405876,
                        49.217173
                    ],
                    [
                        -116.400017,
                        49.245986
                    ],
                    [
                        -116.424786,
                        49.254816
                    ],
                    [
                        -116.43908,
                        49.264469
                    ],
                    [
                        -116.448995,
                        49.2632
                    ],
                    [
                        -116.463841,
                        49.27138
                    ],
                    [
                        -116.480353,
                        49.2709
                    ],
                    [
                        -116.487404,
                        49.282123
                    ],
                    [
                        -116.483387,
                        49.285569
                    ],
                    [
                        -116.487673,
                        49.290463
                    ],
                    [
                        -116.485406,
                        49.310025
                    ],
                    [
                        -116.493776,
                        49.314042
                    ],
                    [
                        -116.508172,
                        49.312506
                    ],
                    [
                        -116.524979,
                        49.297345
                    ],
                    [
                        -116.532564,
                        49.301421
                    ],
                    [
                        -116.554823,
                        49.295281
                    ],
                    [
                        -116.56333,
                        49.300134
                    ],
                    [
                        -116.568877,
                        49.318441
                    ],
                    [
                        -116.579997,
                        49.32903
                    ],
                    [
                        -116.570724,
                        49.325008
                    ],
                    [
                        -116.570083,
                        49.329603
                    ],
                    [
                        -116.579787,
                        49.330967
                    ],
                    [
                        -116.578715,
                        49.339278
                    ],
                    [
                        -116.588896,
                        49.344015
                    ],
                    [
                        -116.588786,
                        49.348201
                    ],
                    [
                        -116.593781,
                        49.347563
                    ],
                    [
                        -116.603643,
                        49.39041
                    ],
                    [
                        -116.61373,
                        49.404024
                    ],
                    [
                        -116.627682,
                        49.405661
                    ],
                    [
                        -116.635538,
                        49.420381
                    ],
                    [
                        -116.623801,
                        49.429116
                    ],
                    [
                        -116.62446,
                        49.447772
                    ],
                    [
                        -116.635908,
                        49.464556
                    ],
                    [
                        -116.650027,
                        49.467091
                    ],
                    [
                        -116.662944,
                        49.477382
                    ],
                    [
                        -116.64443,
                        49.494592
                    ],
                    [
                        -116.655988,
                        49.548093
                    ],
                    [
                        -116.670162,
                        49.570773
                    ],
                    [
                        -116.684315,
                        49.573621
                    ],
                    [
                        -116.683732,
                        49.577908
                    ],
                    [
                        -116.673551,
                        49.58237
                    ],
                    [
                        -116.679473,
                        49.588889
                    ],
                    [
                        -116.677287,
                        49.622504
                    ],
                    [
                        -116.685822,
                        49.622495
                    ],
                    [
                        -116.690124,
                        49.630424
                    ],
                    [
                        -116.699498,
                        49.666159
                    ],
                    [
                        -116.692529,
                        49.669254
                    ],
                    [
                        -116.708256,
                        49.674566
                    ],
                    [
                        -116.727124,
                        49.691048
                    ],
                    [
                        -116.785721,
                        49.709145
                    ],
                    [
                        -116.770378,
                        49.738328
                    ],
                    [
                        -116.758537,
                        49.740443
                    ],
                    [
                        -116.753995,
                        49.769429
                    ],
                    [
                        -116.762994,
                        49.797916
                    ],
                    [
                        -116.760608,
                        49.81908
                    ],
                    [
                        -116.770223,
                        49.842278
                    ],
                    [
                        -116.762135,
                        49.867514
                    ],
                    [
                        -116.773547,
                        49.892899
                    ],
                    [
                        -116.755521,
                        49.907668
                    ],
                    [
                        -116.754551,
                        49.925427
                    ],
                    [
                        -116.734423,
                        49.944936
                    ],
                    [
                        -116.737364,
                        49.94884
                    ],
                    [
                        -116.730511,
                        49.950875
                    ],
                    [
                        -116.725019,
                        49.981711
                    ],
                    [
                        -116.731231,
                        49.984822
                    ],
                    [
                        -116.753716,
                        49.958856
                    ],
                    [
                        -116.750726,
                        49.956649
                    ],
                    [
                        -116.757069,
                        49.954917
                    ],
                    [
                        -116.750365,
                        49.950004
                    ],
                    [
                        -116.762725,
                        49.945443
                    ],
                    [
                        -116.765401,
                        49.926361
                    ],
                    [
                        -116.774146,
                        49.919863
                    ],
                    [
                        -116.774368,
                        49.938231
                    ],
                    [
                        -116.767528,
                        49.948928
                    ],
                    [
                        -116.778839,
                        49.967805
                    ],
                    [
                        -116.770431,
                        49.980498
                    ],
                    [
                        -116.786819,
                        49.986193
                    ],
                    [
                        -116.807863,
                        50.0022
                    ],
                    [
                        -116.828319,
                        50.007177
                    ],
                    [
                        -116.873023,
                        50.008243
                    ],
                    [
                        -116.845289,
                        50.019479
                    ],
                    [
                        -116.819012,
                        50.021374
                    ],
                    [
                        -116.817848,
                        50.024177
                    ],
                    [
                        -116.833166,
                        50.041673
                    ],
                    [
                        -116.870726,
                        50.058559
                    ],
                    [
                        -116.863731,
                        50.062456
                    ],
                    [
                        -116.838605,
                        50.06541
                    ],
                    [
                        -116.816983,
                        50.081827
                    ],
                    [
                        -116.830519,
                        50.082332
                    ],
                    [
                        -116.83198,
                        50.088173
                    ],
                    [
                        -116.82539,
                        50.090251
                    ],
                    [
                        -116.830821,
                        50.093083
                    ],
                    [
                        -116.833931,
                        50.108667
                    ],
                    [
                        -116.754331,
                        50.114523
                    ],
                    [
                        -116.751758,
                        50.125777
                    ],
                    [
                        -116.759717,
                        50.129074
                    ],
                    [
                        -116.774619,
                        50.126601
                    ],
                    [
                        -116.785039,
                        50.145736
                    ],
                    [
                        -116.769023,
                        50.15854
                    ],
                    [
                        -116.768593,
                        50.166233
                    ],
                    [
                        -116.730482,
                        50.161628
                    ],
                    [
                        -116.702847,
                        50.18041
                    ],
                    [
                        -116.705808,
                        50.18563
                    ],
                    [
                        -116.729753,
                        50.193933
                    ],
                    [
                        -116.745945,
                        50.192547
                    ],
                    [
                        -116.758383,
                        50.195139
                    ],
                    [
                        -116.763347,
                        50.200006
                    ],
                    [
                        -116.793631,
                        50.204336
                    ],
                    [
                        -116.780978,
                        50.208895
                    ],
                    [
                        -116.806082,
                        50.219532
                    ],
                    [
                        -116.798726,
                        50.225004
                    ],
                    [
                        -116.799684,
                        50.23337
                    ],
                    [
                        -116.78993,
                        50.246599
                    ],
                    [
                        -116.793161,
                        50.255386
                    ],
                    [
                        -116.814182,
                        50.270049
                    ]
                ],
                [
                    [
                        -116.661407,
                        49.266498
                    ],
                    [
                        -116.684227,
                        49.260484
                    ],
                    [
                        -116.693787,
                        49.249696
                    ],
                    [
                        -116.712242,
                        49.267573
                    ],
                    [
                        -116.716144,
                        49.277947
                    ],
                    [
                        -116.733371,
                        49.283658
                    ],
                    [
                        -116.757356,
                        49.30041
                    ],
                    [
                        -116.756024,
                        49.314972
                    ],
                    [
                        -116.783055,
                        49.327345
                    ],
                    [
                        -116.785339,
                        49.352282
                    ],
                    [
                        -116.800187,
                        49.36218
                    ],
                    [
                        -116.811853,
                        49.431679
                    ],
                    [
                        -116.824233,
                        49.436631
                    ],
                    [
                        -116.837438,
                        49.46194
                    ],
                    [
                        -116.830119,
                        49.479067
                    ],
                    [
                        -116.838161,
                        49.494365
                    ],
                    [
                        -116.836592,
                        49.524372
                    ],
                    [
                        -116.844142,
                        49.532316
                    ],
                    [
                        -116.838651,
                        49.54879
                    ],
                    [
                        -116.878042,
                        49.603755
                    ],
                    [
                        -116.921184,
                        49.61734
                    ],
                    [
                        -116.932356,
                        49.625595
                    ],
                    [
                        -116.945949,
                        49.625625
                    ],
                    [
                        -116.945456,
                        49.629807
                    ],
                    [
                        -116.956123,
                        49.637474
                    ],
                    [
                        -116.946062,
                        49.648001
                    ],
                    [
                        -116.927845,
                        49.653941
                    ],
                    [
                        -116.905457,
                        49.687957
                    ],
                    [
                        -116.906766,
                        49.756724
                    ],
                    [
                        -116.900579,
                        49.777425
                    ],
                    [
                        -116.887889,
                        49.786363
                    ],
                    [
                        -116.898282,
                        49.808974
                    ],
                    [
                        -116.893856,
                        49.823394
                    ],
                    [
                        -116.900138,
                        49.871649
                    ],
                    [
                        -116.892714,
                        49.88407
                    ],
                    [
                        -116.900995,
                        49.900631
                    ],
                    [
                        -116.890525,
                        49.90558
                    ],
                    [
                        -116.881959,
                        49.90677
                    ],
                    [
                        -116.872441,
                        49.895111
                    ],
                    [
                        -116.855547,
                        49.831103
                    ],
                    [
                        -116.863161,
                        49.809212
                    ],
                    [
                        -116.856974,
                        49.779469
                    ],
                    [
                        -116.868396,
                        49.763765
                    ],
                    [
                        -116.863875,
                        49.73878
                    ],
                    [
                        -116.871251,
                        49.709275
                    ],
                    [
                        -116.869689,
                        49.687286
                    ],
                    [
                        -116.877605,
                        49.677918
                    ],
                    [
                        -116.875403,
                        49.669726
                    ],
                    [
                        -116.887455,
                        49.639016
                    ],
                    [
                        -116.878973,
                        49.630813
                    ],
                    [
                        -116.820825,
                        49.600028
                    ],
                    [
                        -116.808481,
                        49.601069
                    ],
                    [
                        -116.799856,
                        49.595567
                    ],
                    [
                        -116.802492,
                        49.578805
                    ],
                    [
                        -116.78552,
                        49.531869
                    ],
                    [
                        -116.786701,
                        49.502169
                    ],
                    [
                        -116.759553,
                        49.447135
                    ],
                    [
                        -116.757458,
                        49.413553
                    ],
                    [
                        -116.749051,
                        49.412414
                    ],
                    [
                        -116.732454,
                        49.383027
                    ],
                    [
                        -116.729008,
                        49.347734
                    ],
                    [
                        -116.712166,
                        49.329794
                    ],
                    [
                        -116.677013,
                        49.311247
                    ],
                    [
                        -116.656386,
                        49.292683
                    ],
                    [
                        -116.665452,
                        49.283868
                    ],
                    [
                        -116.661407,
                        49.266498
                    ]
                ],
                [
                    [
                        -116.543638,
                        49.187507
                    ],
                    [
                        -116.525044,
                        49.187499
                    ],
                    [
                        -116.525025,
                        49.175026
                    ],
                    [
                        -116.54038,
                        49.175027
                    ],
                    [
                        -116.543638,
                        49.187507
                    ]
                ],
                [
                    [
                        -116.648873,
                        49.397023
                    ],
                    [
                        -116.647222,
                        49.384197
                    ],
                    [
                        -116.63247,
                        49.357549
                    ],
                    [
                        -116.641841,
                        49.352186
                    ],
                    [
                        -116.670758,
                        49.365068
                    ],
                    [
                        -116.680972,
                        49.35837
                    ],
                    [
                        -116.686885,
                        49.382062
                    ],
                    [
                        -116.683725,
                        49.386807
                    ],
                    [
                        -116.694404,
                        49.396677
                    ],
                    [
                        -116.681894,
                        49.390399
                    ],
                    [
                        -116.661213,
                        49.389299
                    ],
                    [
                        -116.648873,
                        49.397023
                    ]
                ],
                [
                    [
                        -116.680191,
                        49.35708
                    ],
                    [
                        -116.645865,
                        49.346088
                    ],
                    [
                        -116.638369,
                        49.335986
                    ],
                    [
                        -116.651642,
                        49.332352
                    ],
                    [
                        -116.66261,
                        49.333954
                    ],
                    [
                        -116.680191,
                        49.35708
                    ]
                ],
                [
                    [
                        -116.700972,
                        49.413499
                    ],
                    [
                        -116.697025,
                        49.421028
                    ],
                    [
                        -116.691549,
                        49.402135
                    ],
                    [
                        -116.695216,
                        49.400111
                    ],
                    [
                        -116.700972,
                        49.413499
                    ]
                ],
                [
                    [
                        -116.787511,
                        49.2316
                    ],
                    [
                        -116.787456,
                        49.237499
                    ],
                    [
                        -116.775026,
                        49.237487
                    ],
                    [
                        -116.775045,
                        49.229685
                    ],
                    [
                        -116.787511,
                        49.2316
                    ]
                ],
                [
                    [
                        -116.905526,
                        49.235449
                    ],
                    [
                        -116.900633,
                        49.223737
                    ],
                    [
                        -116.901556,
                        49.220202
                    ],
                    [
                        -116.905526,
                        49.235449
                    ]
                ],
                [
                    [
                        -116.912434,
                        49.222844
                    ],
                    [
                        -116.910012,
                        49.213009
                    ],
                    [
                        -116.911013,
                        49.211267
                    ],
                    [
                        -116.914178,
                        49.215972
                    ],
                    [
                        -116.912434,
                        49.222844
                    ]
                ]
            ],
            [
                [
                    [
                        -116.79608,
                        50.092105
                    ],
                    [
                        -116.77979,
                        50.082621
                    ],
                    [
                        -116.764776,
                        50.090629
                    ],
                    [
                        -116.740765,
                        50.091539
                    ],
                    [
                        -116.72962,
                        50.093661
                    ],
                    [
                        -116.707964,
                        50.092567
                    ],
                    [
                        -116.699656,
                        50.089499
                    ],
                    [
                        -116.694319,
                        50.091308
                    ],
                    [
                        -116.69837,
                        50.097572
                    ],
                    [
                        -116.713723,
                        50.100007
                    ],
                    [
                        -116.770699,
                        50.100006
                    ],
                    [
                        -116.79608,
                        50.092105
                    ]
                ]
            ],
            [
                [
                    [
                        -116.657371,
                        49.618404
                    ],
                    [
                        -116.655342,
                        49.617545
                    ],
                    [
                        -116.653554,
                        49.612507
                    ],
                    [
                        -116.650902,
                        49.612509
                    ],
                    [
                        -116.650134,
                        49.614234
                    ],
                    [
                        -116.650014,
                        49.613657
                    ],
                    [
                        -116.647563,
                        49.615002
                    ],
                    [
                        -116.647742,
                        49.617474
                    ],
                    [
                        -116.646774,
                        49.619847
                    ],
                    [
                        -116.644084,
                        49.623018
                    ],
                    [
                        -116.643261,
                        49.6276
                    ],
                    [
                        -116.644137,
                        49.630047
                    ],
                    [
                        -116.648758,
                        49.632926
                    ],
                    [
                        -116.650013,
                        49.632981
                    ],
                    [
                        -116.648831,
                        49.629495
                    ],
                    [
                        -116.649624,
                        49.624813
                    ],
                    [
                        -116.655547,
                        49.623506
                    ],
                    [
                        -116.655443,
                        49.620798
                    ],
                    [
                        -116.655974,
                        49.619639
                    ],
                    [
                        -116.657364,
                        49.619174
                    ],
                    [
                        -116.657371,
                        49.618404
                    ]
                ]
            ],
            [
                [
                    [
                        -116.625812,
                        49.529478
                    ],
                    [
                        -116.623604,
                        49.533883
                    ],
                    [
                        -116.620661,
                        49.535997
                    ],
                    [
                        -116.622073,
                        49.540684
                    ],
                    [
                        -116.621463,
                        49.541726
                    ],
                    [
                        -116.621563,
                        49.54641
                    ],
                    [
                        -116.62316,
                        49.547874
                    ],
                    [
                        -116.62721,
                        49.548289
                    ],
                    [
                        -116.628032,
                        49.550458
                    ],
                    [
                        -116.629263,
                        49.551755
                    ],
                    [
                        -116.628871,
                        49.55283
                    ],
                    [
                        -116.629357,
                        49.554171
                    ],
                    [
                        -116.631617,
                        49.555397
                    ],
                    [
                        -116.632928,
                        49.556954
                    ],
                    [
                        -116.634159,
                        49.557307
                    ],
                    [
                        -116.63314,
                        49.554585
                    ],
                    [
                        -116.633647,
                        49.55
                    ],
                    [
                        -116.631649,
                        49.550013
                    ],
                    [
                        -116.630774,
                        49.548904
                    ],
                    [
                        -116.629556,
                        49.543344
                    ],
                    [
                        -116.629902,
                        49.540917
                    ],
                    [
                        -116.628335,
                        49.538932
                    ],
                    [
                        -116.628365,
                        49.535729
                    ],
                    [
                        -116.626174,
                        49.532411
                    ],
                    [
                        -116.625812,
                        49.529478
                    ]
                ]
            ],
            [
                [
                    [
                        -116.596904,
                        49.443616
                    ],
                    [
                        -116.594601,
                        49.440251
                    ],
                    [
                        -116.585213,
                        49.442131
                    ],
                    [
                        -116.584551,
                        49.447737
                    ],
                    [
                        -116.581154,
                        49.450116
                    ],
                    [
                        -116.578822,
                        49.456189
                    ],
                    [
                        -116.580756,
                        49.459778
                    ],
                    [
                        -116.5879,
                        49.463368
                    ],
                    [
                        -116.587711,
                        49.471372
                    ],
                    [
                        -116.591249,
                        49.475779
                    ],
                    [
                        -116.595843,
                        49.477667
                    ],
                    [
                        -116.606159,
                        49.475221
                    ],
                    [
                        -116.602753,
                        49.459643
                    ],
                    [
                        -116.597661,
                        49.451393
                    ],
                    [
                        -116.596904,
                        49.443616
                    ]
                ]
            ],
            [
                [
                    [
                        -116.572439,
                        49.372394
                    ],
                    [
                        -116.569849,
                        49.373057
                    ],
                    [
                        -116.567152,
                        49.375012
                    ],
                    [
                        -116.5653,
                        49.37882
                    ],
                    [
                        -116.563811,
                        49.38018
                    ],
                    [
                        -116.567668,
                        49.383293
                    ],
                    [
                        -116.569036,
                        49.387183
                    ],
                    [
                        -116.575278,
                        49.389699
                    ],
                    [
                        -116.577917,
                        49.391462
                    ],
                    [
                        -116.579471,
                        49.393955
                    ],
                    [
                        -116.585752,
                        49.397523
                    ],
                    [
                        -116.584821,
                        49.395607
                    ],
                    [
                        -116.581522,
                        49.393228
                    ],
                    [
                        -116.578836,
                        49.3899
                    ],
                    [
                        -116.577648,
                        49.385645
                    ],
                    [
                        -116.576566,
                        49.384368
                    ],
                    [
                        -116.576574,
                        49.380283
                    ],
                    [
                        -116.572915,
                        49.375033
                    ],
                    [
                        -116.572439,
                        49.372394
                    ]
                ]
            ]
        ]
    },
    "properties": {
        "id": 687,
        "name": "BC-Kootenay_Columbia_2017"
    }
}