{
"type": "FeatureCollection",
"name": "tier1_moderate_severe",
"crs": { "type": "name", "properties": { "name": "urn:ogc:def:crs:OGC:1.3:CRS84" } },
"features": [
{"type":"Feature","properties":{"POLYGON_NUMBER":6232882007.0,"PEST_SEVERITY_CODE":"S","CAPTURE_YEAR":2007,"AREA_HA":39.0,"tier":"1_moderate_severe_in_burn"},"geometry":{"type":"Polygon","coordinates":[[[-116.68528453497413,49.173246208601249],[-116.685389792711078,49.173908968920003],[-116.684904241984711,49.174686068357637],[-116.684036761769718,49.175806014218509],[-116.682646683173559,49.176148974844033],[-116.681186622886955,49.176171956087899],[-116.679031221593448,49.176149265233789],[-116.678508009479316,49.174823750952797],[-116.678366456590012,49.172926864401767],[-116.678363948177861,49.171029959039082],[-116.67905876748793,49.170732815210926],[-116.680552802114022,49.170252770223861],[-116.681595549697676,49.170206984464741],[-116.682288826364982,49.168835661204866],[-116.6834350560611,49.16826420118359],[-116.684651808684848,49.168401191445241],[-116.686009866456615,49.169382217203804],[-116.686007904328036,49.169467295781523],[-116.686001231924024,49.169756076021841],[-116.685886436995318,49.170044143701212],[-116.685879838032278,49.170332349038468],[-116.685873257552885,49.170620256233136],[-116.685866668396343,49.170907862924039],[-116.685968001343795,49.171195474246169],[-116.685963934527663,49.171553167931698],[-116.685962130018865,49.171838838576178],[-116.685959877145038,49.172195827072848],[-116.685957612249126,49.172552669057673],[-116.685955809052857,49.172838057916991],[-116.68586172141066,49.173083439227142],[-116.68528453497413,49.173246208601249]]]}},
{"type":"Feature","properties":{"POLYGON_NUMBER":4113252004.0,"PEST_SEVERITY_CODE":"M","CAPTURE_YEAR":2004,"AREA_HA":20.82,"tier":"1_moderate_severe_in_burn"},"geometry":{"type":"Polygon","coordinates":[[[-116.668333781868782,49.167188377006219],[-116.668237256277621,49.167874198731418],[-116.667462644143583,49.168781166490156],[-116.666496740760834,49.169764731438832],[-116.665755765420869,49.171414598012781],[-116.664528692208677,49.172653966260889],[-116.66283358063707,49.173021777604475],[-116.661791186583173,49.172750017580924],[-116.661354493634377,49.171349108315873],[-116.661408924582176,49.171233888924917],[-116.661690512532232,49.171050983795993],[-116.662170241749919,49.170827822319147],[-116.662768053443187,49.17083399091586],[-116.663125774565785,49.170989152385388],[-116.663601650436675,49.171145140705342],[-116.664076700070936,49.17114978123297],[-116.664550825657216,49.171154547963859],[-116.664905601824373,49.170856698014262],[-116.664905666392286,49.170479927905618],[-116.664905718960625,49.170178520821992],[-116.665023843673566,49.169878732446527],[-116.665259793281962,49.169580886084589],[-116.665377670334536,49.169281620596408],[-116.665493811635002,49.168906122038209],[-116.665487438536061,49.16860017750215],[-116.665599476358665,49.168296343990995],[-116.665711619262609,49.167992256185755],[-116.666061892754897,49.167770438096596],[-116.666413125459258,49.167625601571117],[-116.666761105396361,49.167327609037862],[-116.66711005634879,49.167106608183694],[-116.667458560752806,49.166885885304573],[-116.667807736131977,49.166742146015991],[-116.667873492628189,49.166685808911907],[-116.668333781868782,49.167188377006219]]]}},
{"type":"Feature","properties":{"POLYGON_NUMBER":754222008.0,"PEST_SEVERITY_CODE":"M","CAPTURE_YEAR":2008,"AREA_HA":43.89,"tier":"1_moderate_severe_in_burn"},"geometry":{"type":"Polygon","coordinates":[[[-116.679794912628225,49.166075211073874],[-116.681011933127664,49.165092560870484],[-116.682437444463702,49.163767136651494],[-116.682715595932322,49.163595989915486],[-116.682971182343735,49.163758587040739],[-116.683189828937742,49.163969981863389],[-116.683629690946844,49.16417748390311],[-116.684070035127888,49.164385216355825],[-116.68429683538676,49.164590053438744],[-116.684413744846893,49.164867648930539],[-116.684753942235517,49.165070089915716],[-116.685097898462644,49.165342107738915],[-116.685446462434939,49.165683748724923],[-116.685680991227429,49.165958876984426],[-116.686045294161488,49.166724581218588],[-116.686056731584571,49.16707692467201],[-116.686166770299224,49.167292385065302],[-116.686268545099182,49.167584086192733],[-116.686260014959771,49.167947422453032],[-116.686253200006476,49.168237743459393],[-116.686029622106787,49.168526639608721],[-116.686022928833296,49.168816417194698],[-116.686014571647164,49.16917819718892],[-116.686013288161391,49.169233850121216],[-116.68494465795483,49.168953329758608],[-116.683692006496685,49.168336634878749],[-116.681639277530437,49.167651499291679],[-116.68014319420999,49.167034796183188],[-116.679794912628225,49.166075211073874]]]}},
{"type":"Feature","properties":{"POLYGON_NUMBER":5499542006.0,"PEST_SEVERITY_CODE":"M","CAPTURE_YEAR":2006,"AREA_HA":45.86,"tier":"1_moderate_severe_in_burn"},"geometry":{"type":"Polygon","coordinates":[[[-116.679822390238598,49.162689434796135],[-116.676455355838925,49.16203237764536],[-116.67476054115366,49.161177554327892],[-116.675120246450604,49.160308855125272],[-116.675206973798595,49.160345030267919],[-116.675645919912853,49.160527840232213],[-116.676081748882439,49.160713518330809],[-116.676515809200239,49.160822786770623],[-116.676948203845939,49.161001197413448],[-116.677274624408057,49.161086908622899],[-116.677707706671498,49.16125212790368],[-116.678248056437198,49.161419617994518],[-116.678678116319972,49.16158375244715],[-116.678996547755446,49.161820896285541],[-116.679423992162782,49.161983846077042],[-116.679850092991614,49.162146277427674],[-116.680274850213621,49.162308190353762],[-116.680809252221962,49.162537045342035],[-116.681240741264489,49.162684022063225],[-116.681658257047502,49.162920534099307],[-116.681832981032514,49.16303319445543],[-116.679822390238598,49.162689434796135]]]}}
]
}
