<?xml version="1.0" encoding="UTF-8"?>
<kml xmlns="http://www.opengis.net/kml/2.2"><Document>
<name>Tier 1 moderate/severe</name>
<Placemark><name>poly 6232882007 sev S 2007</name><description>tier 1_moderate_severe_in_burn</description><Polygon><outerBoundaryIs><LinearRing><coordinates>-116.685285,49.173246,0 -116.685390,49.173909,0 -116.684904,49.174686,0 -116.684037,49.175806,0 -116.682647,49.176149,0 -116.681187,49.176172,0 -116.679031,49.176149,0 -116.678508,49.174824,0 -116.678366,49.172927,0 -116.678364,49.171030,0 -116.679059,49.170733,0 -116.680553,49.170253,0 -116.681596,49.170207,0 -116.682289,49.168836,0 -116.683435,49.168264,0 -116.684652,49.168401,0 -116.686010,49.169382,0 -116.686008,49.169467,0 -116.686001,49.169756,0 -116.685886,49.170044,0 -116.685880,49.170332,0 -116.685873,49.170620,0 -116.685867,49.170908,0 -116.685968,49.171195,0 -116.685964,49.171553,0 -116.685962,49.171839,0 -116.685960,49.172196,0 -116.685958,49.172553,0 -116.685956,49.172838,0 -116.685862,49.173083,0 -116.685285,49.173246,0</coordinates></LinearRing></outerBoundaryIs></Polygon></Placemark>
<Placemark><name>poly 4113252004 sev M 2004</name><description>tier 1_moderate_severe_in_burn</description><Polygon><outerBoundaryIs><LinearRing><coordinates>-116.668334,49.167188,0 -116.668237,49.167874,0 -116.667463,49.168781,0 -116.666497,49.169765,0 -116.665756,49.171415,0 -116.664529,49.172654,0 -116.662834,49.173022,0 -116.661791,49.172750,0 -116.661354,49.171349,0 -116.661409,49.171234,0 -116.661691,49.171051,0 -116.662170,49.170828,0 -116.662768,49.170834,0 -116.663126,49.170989,0 -116.663602,49.171145,0 -116.664077,49.171150,0 -116.664551,49.171155,0 -116.664906,49.170857,0 -116.664906,49.170480,0 -116.664906,49.170179,0 -116.665024,49.169879,0 -116.665260,49.169581,0 -116.665378,49.169282,0 -116.665494,49.168906,0 -116.665487,49.168600,0 -116.665599,49.168296,0 -116.665712,49.167992,0 -116.666062,49.167770,0 -116.666413,49.167626,0 -116.666761,49.167328,0 -116.667110,49.167107,0 -116.667459,49.166886,0 -116.667808,49.166742,0 -116.667873,49.166686,0 -116.668334,49.167188,0</coordinates></LinearRing></outerBoundaryIs></Polygon></Placemark>
<Placemark><name>poly 754222008 sev M 2008</name><description>tier 1_moderate_severe_in_burn</description><Polygon><outerBoundaryIs><LinearRing><coordinates>-116.679795,49.166075,0 -116.681012,49.165093,0 -116.682437,49.163767,0 -116.682716,49.163596,0 -116.682971,49.163759,0 -116.683190,49.163970,0 -116.683630,49.164177,0 -116.684070,49.164385,0 -116.684297,49.164590,0 -116.684414,49.164868,0 -116.684754,49.165070,0 -116.685098,49.165342,0 -116.685446,49.165684,0 -116.685681,49.165959,0 -116.686045,49.166725,0 -116.686057,49.167077,0 -116.686167,49.167292,0 -116.686269,49.167584,0 -116.686260,49.167947,0 -116.686253,49.168238,0 -116.686030,49.168527,0 -116.686023,49.168816,0 -116.686015,49.169178,0 -116.686013,49.169234,0 -116.684945,49.168953,0 -116.683692,49.168337,0 -116.681639,49.167651,0 -116.680143,49.167035,0 -116.679795,49.166075,0</coordinates></LinearRing></outerBoundaryIs></Polygon></Placemark>
<Placemark><name>poly 5499542006 sev M 2006</name><description>tier 1_moderate_severe_in_burn</description><Polygon><outerBoundaryIs><LinearRing><coordinates>-116.679822,49.162689,0 -116.676455,49.162032,0 -116.674761,49.161178,0 -116.675120,49.160309,0 -116.675207,49.160345,0 -116.675646,49.160528,0 -116.676082,49.160714,0 -116.676516,49.160823,0 -116.676948,49.161001,0 -116.677275,49.161087,0 -116.677708,49.161252,0 -116.678248,49.161420,0 -116.678678,49.161584,0 -116.678997,49.161821,0 -116.679424,49.161984,0 -116.679850,49.162146,0 -116.680275,49.162308,0 -116.680809,49.162537,0 -116.681241,49.162684,0 -116.681658,49.162921,0 -116.681833,49.163033,0 -116.679822,49.162689,0</coordinates></LinearRing></outerBoundaryIs></Polygon></Placemark>
</Document></kml>