{
"type": "FeatureCollection",
"name": "search_area_all_tiers",
"crs": { "type": "name", "properties": { "name": "urn:ogc:def:crs:OGC:1.3:CRS84" } },
"features": [
{"type":"Feature","properties":{"POLYGON_NUMBER":6232882007.0,"PEST_SEVERITY_CODE":"S","CAPTURE_YEAR":2007,"AREA_HA":39.0,"tier":"1_moderate_severe_in_burn","ha_clipped":37.46},"geometry":{"type":"Polygon","coordinates":[[[-116.68528453497413,49.173246208601249],[-116.685389792711078,49.173908968920003],[-116.684904241984711,49.174686068357637],[-116.684036761769718,49.175806014218509],[-116.682646683173559,49.176148974844033],[-116.681186622886955,49.176171956087899],[-116.679031221593448,49.176149265233789],[-116.678508009479316,49.174823750952797],[-116.678366456590012,49.172926864401767],[-116.678363948177861,49.171029959039082],[-116.67905876748793,49.170732815210926],[-116.680552802114022,49.170252770223861],[-116.681595549697676,49.170206984464741],[-116.682288826364982,49.168835661204866],[-116.6834350560611,49.16826420118359],[-116.684651808684848,49.168401191445241],[-116.686009866456615,49.169382217203804],[-116.686007904328036,49.169467295781523],[-116.686001231924024,49.169756076021841],[-116.685886436995318,49.170044143701212],[-116.685879838032278,49.170332349038468],[-116.685873257552885,49.170620256233136],[-116.685866668396343,49.170907862924039],[-116.685968001343795,49.171195474246169],[-116.685963934527663,49.171553167931698],[-116.685962130018865,49.171838838576178],[-116.685959877145038,49.172195827072848],[-116.685957612249126,49.172552669057673],[-116.685955809052857,49.172838057916991],[-116.68586172141066,49.173083439227142],[-116.68528453497413,49.173246208601249]]]}},
{"type":"Feature","properties":{"POLYGON_NUMBER":4113252004.0,"PEST_SEVERITY_CODE":"M","CAPTURE_YEAR":2004,"AREA_HA":20.82,"tier":"1_moderate_severe_in_burn","ha_clipped":11.01},"geometry":{"type":"Polygon","coordinates":[[[-116.668333781868782,49.167188377006219],[-116.668237256277621,49.167874198731418],[-116.667462644143583,49.168781166490156],[-116.666496740760834,49.169764731438832],[-116.665755765420869,49.171414598012781],[-116.664528692208677,49.172653966260889],[-116.66283358063707,49.173021777604475],[-116.661791186583173,49.172750017580924],[-116.661354493634377,49.171349108315873],[-116.661408924582176,49.171233888924917],[-116.661690512532232,49.171050983795993],[-116.662170241749919,49.170827822319147],[-116.662768053443187,49.17083399091586],[-116.663125774565785,49.170989152385388],[-116.663601650436675,49.171145140705342],[-116.664076700070936,49.17114978123297],[-116.664550825657216,49.171154547963859],[-116.664905601824373,49.170856698014262],[-116.664905666392286,49.170479927905618],[-116.664905718960625,49.170178520821992],[-116.665023843673566,49.169878732446527],[-116.665259793281962,49.169580886084589],[-116.665377670334536,49.169281620596408],[-116.665493811635002,49.168906122038209],[-116.665487438536061,49.16860017750215],[-116.665599476358665,49.168296343990995],[-116.665711619262609,49.167992256185755],[-116.666061892754897,49.167770438096596],[-116.666413125459258,49.167625601571117],[-116.666761105396361,49.167327609037862],[-116.66711005634879,49.167106608183694],[-116.667458560752806,49.166885885304573],[-116.667807736131977,49.166742146015991],[-116.667873492628189,49.166685808911907],[-116.668333781868782,49.167188377006219]]]}},
{"type":"Feature","properties":{"POLYGON_NUMBER":754222008.0,"PEST_SEVERITY_CODE":"M","CAPTURE_YEAR":2008,"AREA_HA":43.89,"tier":"1_moderate_severe_in_burn","ha_clipped":16.61},"geometry":{"type":"Polygon","coordinates":[[[-116.679794912628225,49.166075211073874],[-116.681011933127664,49.165092560870484],[-116.682437444463702,49.163767136651494],[-116.682715595932322,49.163595989915486],[-116.682971182343735,49.163758587040739],[-116.683189828937742,49.163969981863389],[-116.683629690946844,49.16417748390311],[-116.684070035127888,49.164385216355825],[-116.68429683538676,49.164590053438744],[-116.684413744846893,49.164867648930539],[-116.684753942235517,49.165070089915716],[-116.685097898462644,49.165342107738915],[-116.685446462434939,49.165683748724923],[-116.685680991227429,49.165958876984426],[-116.686045294161488,49.166724581218588],[-116.686056731584571,49.16707692467201],[-116.686166770299224,49.167292385065302],[-116.686268545099182,49.167584086192733],[-116.686260014959771,49.167947422453032],[-116.686253200006476,49.168237743459393],[-116.686029622106787,49.168526639608721],[-116.686022928833296,49.168816417194698],[-116.686014571647164,49.16917819718892],[-116.686013288161391,49.169233850121216],[-116.68494465795483,49.168953329758608],[-116.683692006496685,49.168336634878749],[-116.681639277530437,49.167651499291679],[-116.68014319420999,49.167034796183188],[-116.679794912628225,49.166075211073874]]]}},
{"type":"Feature","properties":{"POLYGON_NUMBER":5499542006.0,"PEST_SEVERITY_CODE":"M","CAPTURE_YEAR":2006,"AREA_HA":45.86,"tier":"1_moderate_severe_in_burn","ha_clipped":4.4},"geometry":{"type":"Polygon","coordinates":[[[-116.679822390238598,49.162689434796135],[-116.676455355838925,49.16203237764536],[-116.67476054115366,49.161177554327892],[-116.675120246450604,49.160308855125272],[-116.675206973798595,49.160345030267919],[-116.675645919912853,49.160527840232213],[-116.676081748882439,49.160713518330809],[-116.676515809200239,49.160822786770623],[-116.676948203845939,49.161001197413448],[-116.677274624408057,49.161086908622899],[-116.677707706671498,49.16125212790368],[-116.678248056437198,49.161419617994518],[-116.678678116319972,49.16158375244715],[-116.678996547755446,49.161820896285541],[-116.679423992162782,49.161983846077042],[-116.679850092991614,49.162146277427674],[-116.680274850213621,49.162308190353762],[-116.680809252221962,49.162537045342035],[-116.681240741264489,49.162684022063225],[-116.681658257047502,49.162920534099307],[-116.681832981032514,49.16303319445543],[-116.679822390238598,49.162689434796135]]]}},
{"type":"Feature","properties":{"POLYGON_NUMBER":6232882007.0,"PEST_SEVERITY_CODE":"S","CAPTURE_YEAR":2007,"AREA_HA":39.0,"tier":"2_buffered_100m","ha_clipped":57.76},"geometry":{"type":"Polygon","coordinates":[[[-116.685260083123694,49.176213312292191],[-116.685197382979482,49.17628574538913],[-116.685124733242148,49.1763540660492],[-116.685042756673838,49.176417688582568],[-116.684952156000492,49.176476067572743],[-116.684853707888237,49.17652870255273],[-116.684748256285317,49.17657514229586],[-116.684636705187145,49.17661498868457],[-116.684520010886104,49.176647900123783],[-116.683129911997185,49.176990866474277],[-116.682983404878712,49.177020993316432],[-116.682832680586969,49.177040199201222],[-116.682679626822605,49.177048243590207],[-116.68121954009635,49.177071225192329],[-116.681164613763542,49.177071368366917],[-116.679009173429947,49.177048677024274],[-116.678872168555088,49.177042728597776],[-116.678736756606568,49.177027832407717],[-116.678604293740094,49.177004137640296],[-116.678476106571352,49.17697188159962],[-116.67835347888817,49.176931387330669],[-116.678237638791828,49.176883060383538],[-116.678129746396337,49.176827384751277],[-116.678030882209242,49.17676491802208],[-116.677942036310256,49.17669628579425],[-116.677864098435847,49.176622175410316],[-116.677797849069648,49.17654332907258],[-116.677743951627079,49.176460536409472],[-116.677702945813422,49.176374626566961],[-116.677179766849861,49.175049106389359],[-116.677151637291402,49.174959110179671],[-116.677137654821323,49.174867702249671],[-116.676996154183158,49.1729708141429],[-116.676994516780184,49.172927636143491],[-116.676992060785878,49.171030730861091],[-116.676998713349974,49.170941485248228],[-116.677018836451381,49.170853112671942],[-116.677052231468338,49.170766485086908],[-116.677098568832278,49.170682457225908],[-116.677157391282137,49.170601858166599],[-116.677228118378309,49.170525483151856],[-116.677310052231576,49.170454085743856],[-116.67740238439039,49.170388370389581],[-116.677504203818586,49.170328985471109],[-116.677614505884605,49.170276516908878],[-116.678309319092278,49.169979377538333],[-116.678455114519252,49.16992505014538],[-116.679949130600107,49.169445012862298],[-116.680071527526621,49.16941041273126],[-116.680198467396067,49.169383764225572],[-116.680328751967309,49.169365318891089],[-116.680461151432254,49.169355250840496],[-116.680583612757715,49.169349874202318],[-116.680986685468213,49.168552615041015],[-116.681036345343756,49.168468700136344],[-116.68109854605143,49.168388459656953],[-116.681172664730994,49.168312697032235],[-116.681257959200309,49.16824217085243],[-116.681353575387945,49.168177587273561],[-116.681458555885698,49.168119592947768],[-116.682604778528471,49.167548141082044],[-116.682720889466424,49.167496185062596],[-116.682844499061432,49.167452293383633],[-116.6829743094126,49.16741692690178],[-116.683108957521625,49.167390456959367],[-116.683247029602242,49.167373161486097],[-116.683387075922795,49.167365222081159],[-116.68352762602585,49.167366722106827],[-116.683667204165062,49.167377645813332],[-116.68488393572818,49.167514633607041],[-116.685010892398992,49.167533025903552],[-116.685134623514841,49.167559216983655],[-116.685254017624175,49.167592971579467],[-116.685368002227889,49.167633986481384],[-116.685475553412019,49.167681893261303],[-116.685575705044812,49.167736261581695],[-116.685667557454664,49.16779660306068],[-116.686253617499176,49.168219958132568],[-116.686253200006476,49.168237743459393],[-116.686029622106787,49.168526639608721],[-116.686022928833296,49.168816417194698],[-116.686014571647164,49.16917819718892],[-116.686007904328036,49.169467295781523],[-116.686001231924024,49.169756076021841],[-116.685886436995318,49.170044143701212],[-116.685879838032278,49.170332349038468],[-116.685873257552885,49.170620256233136],[-116.685866668396343,49.170907862924039],[-116.685968001343795,49.171195474246169],[-116.685963934527663,49.171553167931698],[-116.685962130018865,49.171838838576178],[-116.685959877145038,49.172195827072848],[-116.685957612249126,49.172552669057673],[-116.685955809052857,49.172838057916991],[-116.685846470829858,49.173123212623508],[-116.68573713665819,49.173408340324656],[-116.685627804740747,49.17369344994357],[-116.685410884973805,49.173978502150831],[-116.685301551513689,49.174263602266478],[-116.685300416931014,49.17461995166191],[-116.685192639946649,49.174833784748415],[-116.685193130547262,49.175190157181454],[-116.68519351943813,49.175475272834504],[-116.685406255728907,49.175759820822222],[-116.685611765219903,49.175759271529586],[-116.685260083123694,49.176213312292191]]]}},
{"type":"Feature","properties":{"POLYGON_NUMBER":4113252004.0,"PEST_SEVERITY_CODE":"M","CAPTURE_YEAR":2004,"AREA_HA":20.82,"tier":"2_buffered_100m","ha_clipped":23.15},"geometry":{"type":"Polygon","coordinates":[[[-116.669577587361502,49.166808999947115],[-116.669631587254088,49.166896979072455],[-116.66967116154629,49.16698819731409],[-116.669695870273102,49.167081640743596],[-116.669705438700859,49.167176270692899],[-116.669699760384802,49.167271035299294],[-116.669603253488276,49.167956858196476],[-116.669582622007837,49.168049945303203],[-116.669547278542254,49.168141110664649],[-116.669497609504617,49.168229357357049],[-116.669434157970898,49.168313720368118],[-116.66865956076272,49.169220696118288],[-116.668616043772744,49.169268159964801],[-116.667756988437361,49.17014294603316],[-116.667071792681242,49.171668698833102],[-116.667028349627415,49.171750627092095],[-116.666973073644144,49.171829430941848],[-116.666906478653104,49.171904377635165],[-116.66567942193862,49.173143758040766],[-116.665602106018227,49.173214164202498],[-116.665514804771718,49.173279359340349],[-116.665418330274491,49.173338736981989],[-116.665313579945206,49.173391744769809],[-116.665201528197599,49.173437889599832],[-116.665083217375965,49.173476742209381],[-116.664959748057953,49.173507941170847],[-116.663264610456707,49.173875758730333],[-116.66313280075903,49.173899651020236],[-116.662998017968647,49.173914820946102],[-116.662861601305224,49.173921117777546],[-116.662724906225293,49.173918478948465],[-116.662589290952255,49.173906930678832],[-116.662456102978581,49.173886587714073],[-116.662326665674854,49.173857652184815],[-116.661284256891605,49.173585887592701],[-116.66116064601411,49.173548913526943],[-116.661043219282291,49.173504104408195],[-116.660933128360853,49.173451899709633],[-116.660831452957552,49.17339281143628],[-116.660739190233414,49.173327419102883],[-116.66065724502306,49.173256364049507],[-116.660586420960968,49.173180343150904],[-116.660575870646895,49.173165996568763],[-116.660652597736302,49.173105007403429],[-116.660786690700192,49.172879472667077],[-116.660794235170272,49.172501346271332],[-116.661017703686468,49.172196398595403],[-116.661124982533025,49.171890936466021],[-116.661113554356191,49.17150834076326],[-116.661340018999113,49.17127864615572],[-116.661690512532232,49.171050983795993],[-116.662170241749919,49.170827822319147],[-116.662768053443187,49.17083399091586],[-116.663125774565785,49.170989152385388],[-116.663601650436675,49.171145140705342],[-116.664076700070936,49.17114978123297],[-116.664550825657216,49.171154547963859],[-116.664905601824373,49.170856698014262],[-116.664905666392286,49.170479927905618],[-116.664905718960625,49.170178520821992],[-116.665023843673566,49.169878732446527],[-116.665259793281962,49.169580886084589],[-116.665377670334536,49.169281620596408],[-116.665493811635002,49.168906122038209],[-116.665487438536061,49.16860017750215],[-116.665599476358665,49.168296343990995],[-116.665711619262609,49.167992256185755],[-116.666061892754897,49.167770438096596],[-116.666413125459258,49.167625601571117],[-116.666761105396361,49.167327609037862],[-116.66711005634879,49.167106608183694],[-116.667458560752806,49.166885885304573],[-116.667807736131977,49.166742146015991],[-116.668154260724549,49.166445258009915],[-116.668386599974255,49.16622503490909],[-116.668616983388574,49.165930952980766],[-116.668693200057518,49.165964544734862],[-116.66879625009031,49.166020219063824],[-116.6688905580869,49.166082199273667],[-116.668975230554224,49.166149898173849],[-116.669049465274995,49.166222674393381],[-116.669509762171273,49.16672523785715],[-116.669577587361502,49.166808999947115]]]}},
{"type":"Feature","properties":{"POLYGON_NUMBER":754222008.0,"PEST_SEVERITY_CODE":"M","CAPTURE_YEAR":2008,"AREA_HA":43.89,"tier":"2_buffered_100m","ha_clipped":27.28},"geometry":{"type":"Polygon","coordinates":[[[-116.678435073797104,49.166193508188869],[-116.678423784153466,49.166102317985313],[-116.678426678463637,49.166010847450721],[-116.678443726708835,49.165920042820431],[-116.678474752454136,49.165830843436005],[-116.678519434676915,49.165744172028454],[-116.678577311090393,49.16566092517315],[-116.678647782928664,49.165581964015743],[-116.67873012114265,49.165508105364623],[-116.679917810241136,49.164549155054111],[-116.681316513666019,49.16324868279024],[-116.681402379698838,49.163176875068579],[-116.681498897428398,49.163111141830782],[-116.681731708372297,49.162967894906274],[-116.681985096777154,49.163131276602215],[-116.682313569766933,49.163340234959357],[-116.682642264953756,49.163549338439644],[-116.682971182343735,49.163758587040739],[-116.683189828937742,49.163969981863389],[-116.683629690946844,49.16417748390311],[-116.684070035127888,49.164385216355825],[-116.68429683538676,49.164590053438744],[-116.684413744846893,49.164867648930539],[-116.684753942235517,49.165070089915716],[-116.685097898462644,49.165342107738915],[-116.685446462434939,49.165683748724923],[-116.685680991227429,49.165958876984426],[-116.686045294161488,49.166724581218588],[-116.686056731584571,49.16707692467201],[-116.686166770299224,49.167292385065302],[-116.686268545099182,49.167584086192733],[-116.686260014959771,49.167947422453032],[-116.686253200006476,49.168237743459393],[-116.686029622106787,49.168526639608721],[-116.686022928833296,49.168816417194698],[-116.686014571647164,49.16917819718892],[-116.686007904328036,49.169467295781523],[-116.686001231924024,49.169756076021841],[-116.685886436995318,49.170044143701212],[-116.685884488362873,49.170129249317796],[-116.68575805130267,49.170117673374115],[-116.685628941780166,49.170097354572725],[-116.685503432773345,49.170068946843521],[-116.684434787518711,49.169788421772687],[-116.684325156169479,49.169755915556699],[-116.684220290411702,49.169717235566743],[-116.684120996924534,49.169672679352821],[-116.682963583020438,49.169102867408306],[-116.681016974703155,49.168453147448716],[-116.68090920332989,49.168413057872286],[-116.679413106222626,49.167796345358227],[-116.679304071780066,49.167746404721093],[-116.679202925297062,49.167689775007148],[-116.679110617545291,49.167626988548683],[-116.679028016200675,49.167558635550698],[-116.678955897687445,49.167485358542166],[-116.678894939880394,49.167407846335621],[-116.67884571573407,49.167326827551719],[-116.678808687898623,49.167243063769455],[-116.678460430683501,49.166283474720878],[-116.678435073797104,49.166193508188869]]]}},
{"type":"Feature","properties":{"POLYGON_NUMBER":5499542006.0,"PEST_SEVERITY_CODE":"M","CAPTURE_YEAR":2006,"AREA_HA":45.86,"tier":"2_buffered_100m","ha_clipped":12.54},"geometry":{"type":"Polygon","coordinates":[[[-116.679431206932335,49.163551608894338],[-116.676064119366345,49.162894540323947],[-116.675945519365797,49.162867460581268],[-116.675831193215942,49.162833380762017],[-116.675722099277579,49.162792586549671],[-116.675619152044632,49.162745419912191],[-116.673924327539979,49.161890584406954],[-116.673821597760309,49.161833282483663],[-116.673727945431295,49.161769641362021],[-116.673644275919941,49.161700276305773],[-116.673571398071957,49.161625857913307],[-116.673510016393323,49.161547105633886],[-116.673460724240556,49.161464780811684],[-116.67342399808625,49.161379679324867],[-116.67340019291467,49.161292623890994],[-116.67338953879252,49.161204456113012],[-116.673392138647174,49.161116028342974],[-116.6734079672745,49.161028195441844],[-116.673436871585125,49.160941806515318],[-116.673796598285463,49.160073111445712],[-116.673838380308723,49.159988858679171],[-116.673892597141759,49.159907710162074],[-116.673958722793259,49.159830453078044],[-116.674036115758724,49.159757836858255],[-116.674043000885007,49.159752568164471],[-116.674322705565586,49.159895475958365],[-116.674765737996395,49.160160983657953],[-116.675206973798595,49.160345030267919],[-116.675645919912853,49.160527840232213],[-116.676081748882439,49.160713518330809],[-116.676515809200239,49.160822786770623],[-116.676948203845939,49.161001197413448],[-116.677274624408057,49.161086908622899],[-116.677707706671498,49.16125212790368],[-116.678248056437198,49.161419617994518],[-116.678678116319972,49.16158375244715],[-116.678996547755446,49.161820896285541],[-116.679423992162782,49.161983846077042],[-116.679850092991614,49.162146277427674],[-116.680274850213621,49.162308190353762],[-116.680809252221962,49.162537045342035],[-116.681240741264489,49.162684022063225],[-116.681658257047502,49.162920534099307],[-116.681985096777154,49.163131276602215],[-116.682313569766933,49.163340234959357],[-116.682642264953756,49.163549338439644],[-116.682815996261183,49.163659862069295],[-116.682732519132657,49.163712285169261],[-116.682627972912414,49.163766237636928],[-116.682515948276873,49.16381329466239],[-116.682397499013433,49.163853013584173],[-116.68227373935413,49.163885020768731],[-116.682145833492953,49.163909015125796],[-116.682014984633057,49.163924770941087],[-116.681882423666679,49.163932139999943],[-116.681749397594459,49.163931052981816],[-116.681617157792871,49.163921520112417],[-116.681486948240718,49.163903631067519],[-116.679476324660314,49.16355986536707],[-116.679431206932335,49.163551608894338]]]}},
{"type":"Feature","properties":{"POLYGON_NUMBER":4199662004.0,"PEST_SEVERITY_CODE":"L","CAPTURE_YEAR":2004,"AREA_HA":17.69,"tier":"3_any_IBM_in_burn","ha_clipped":17.68},"geometry":{"type":"Polygon","coordinates":[[[-116.672437836042747,49.175046152083738],[-116.673584611379923,49.175326468826555],[-116.675166004991297,49.175550365209553],[-116.675095350205012,49.176469609365618],[-116.674212783414774,49.176835704902757],[-116.673143039708947,49.177440659303187],[-116.671969238513526,49.177851924684703],[-116.669647557482307,49.178722841262555],[-116.668264874334454,49.179301734952375],[-116.667621921069141,49.179155775390477],[-116.667232106313065,49.178244500887871],[-116.667755825907605,49.176622836054918],[-116.668060680513804,49.176139374056135],[-116.66876612120376,49.175041619122538],[-116.669548805379947,49.174644130566932],[-116.672437836042747,49.175046152083738]]]}},
{"type":"Feature","properties":{"POLYGON_NUMBER":4863672005.0,"PEST_SEVERITY_CODE":"L","CAPTURE_YEAR":2005,"AREA_HA":11.19,"tier":"3_any_IBM_in_burn","ha_clipped":4.02},"geometry":{"type":"Polygon","coordinates":[[[-116.684760182718634,49.172493823562021],[-116.683656815792702,49.171334307513185],[-116.684217381900964,49.170449875465536],[-116.685697127870668,49.169516833927297],[-116.686007493802563,49.169485063344332],[-116.686001231924024,49.169756076021841],[-116.685886436995318,49.170044143701212],[-116.685879838032278,49.170332349038468],[-116.685873257552885,49.170620256233136],[-116.685866668396343,49.170907862924039],[-116.685968001343795,49.171195474246169],[-116.685963934527663,49.171553167931698],[-116.685962130018865,49.171838838576178],[-116.685959877145038,49.172195827072848],[-116.685957612249126,49.172552669057673],[-116.685955809052857,49.172838057916991],[-116.685916565592777,49.172940405476673],[-116.684760182718634,49.172493823562021]]]}},
{"type":"Feature","properties":{"POLYGON_NUMBER":6232882007.0,"PEST_SEVERITY_CODE":"S","CAPTURE_YEAR":2007,"AREA_HA":39.0,"tier":"3_any_IBM_in_burn","ha_clipped":37.46},"geometry":{"type":"Polygon","coordinates":[[[-116.68528453497413,49.173246208601249],[-116.685389792711078,49.173908968920003],[-116.684904241984711,49.174686068357637],[-116.684036761769718,49.175806014218509],[-116.682646683173559,49.176148974844033],[-116.681186622886955,49.176171956087899],[-116.679031221593448,49.176149265233789],[-116.678508009479316,49.174823750952797],[-116.678366456590012,49.172926864401767],[-116.678363948177861,49.171029959039082],[-116.67905876748793,49.170732815210926],[-116.680552802114022,49.170252770223861],[-116.681595549697676,49.170206984464741],[-116.682288826364982,49.168835661204866],[-116.6834350560611,49.16826420118359],[-116.684651808684848,49.168401191445241],[-116.686009866456615,49.169382217203804],[-116.686007904328036,49.169467295781523],[-116.686001231924024,49.169756076021841],[-116.685886436995318,49.170044143701212],[-116.685879838032278,49.170332349038468],[-116.685873257552885,49.170620256233136],[-116.685866668396343,49.170907862924039],[-116.685968001343795,49.171195474246169],[-116.685963934527663,49.171553167931698],[-116.685962130018865,49.171838838576178],[-116.685959877145038,49.172195827072848],[-116.685957612249126,49.172552669057673],[-116.685955809052857,49.172838057916991],[-116.68586172141066,49.173083439227142],[-116.68528453497413,49.173246208601249]]]}},
{"type":"Feature","properties":{"POLYGON_NUMBER":4112962004.0,"PEST_SEVERITY_CODE":"L","CAPTURE_YEAR":2004,"AREA_HA":34.23,"tier":"3_any_IBM_in_burn","ha_clipped":34.21},"geometry":{"type":"Polygon","coordinates":[[[-116.678494168823221,49.179550328824945],[-116.678618599954902,49.180925176269774],[-116.67857487615008,49.181152812827655],[-116.678852118257026,49.1819159077858],[-116.680034084060409,49.18201404446171],[-116.681102616896752,49.182519028339769],[-116.681332234715001,49.183162521956582],[-116.680778517880199,49.184758593928294],[-116.679951828234451,49.185568798965491],[-116.678233646829,49.186790656307089],[-116.67577302847576,49.187280149064932],[-116.674604523278148,49.186743684728974],[-116.674296929692687,49.185954931439404],[-116.674136689415747,49.185502200810433],[-116.67465449911262,49.185013282568036],[-116.675863459676734,49.184419876711978],[-116.67604255355829,49.183671552935458],[-116.67533044783103,49.183149859761883],[-116.674435565731855,49.182844256487506],[-116.673019228220852,49.18249531340183],[-116.672611528045095,49.181860122236593],[-116.673060738693266,49.180625429312414],[-116.674378267682272,49.180017933905262],[-116.675339392393994,49.179427083127358],[-116.677638900975126,49.178854859994779],[-116.678494168823221,49.179550328824945]]]}},
{"type":"Feature","properties":{"POLYGON_NUMBER":4113342004.0,"PEST_SEVERITY_CODE":"L","CAPTURE_YEAR":2004,"AREA_HA":39.92,"tier":"3_any_IBM_in_burn","ha_clipped":10.59},"geometry":{"type":"Polygon","coordinates":[[[-116.685697922829547,49.167960177239003],[-116.683499721771554,49.167823973393617],[-116.681887763063486,49.167944556756368],[-116.681097382106856,49.167647653490391],[-116.680911120813448,49.167146503821428],[-116.681446741131012,49.166011468641599],[-116.682985953500392,49.16479786306347],[-116.683940074557924,49.16432390778737],[-116.684070035127888,49.164385216355825],[-116.68429683538676,49.164590053438744],[-116.684413744846893,49.164867648930539],[-116.684753942235517,49.165070089915716],[-116.685097898462644,49.165342107738915],[-116.685446462434939,49.165683748724923],[-116.685680991227429,49.165958876984426],[-116.686045294161488,49.166724581218588],[-116.686056731584571,49.16707692467201],[-116.686166770299224,49.167292385065302],[-116.686268545099182,49.167584086192733],[-116.686262830890158,49.167827480207748],[-116.685697922829547,49.167960177239003]]]}},
{"type":"Feature","properties":{"POLYGON_NUMBER":4863822005.0,"PEST_SEVERITY_CODE":"L","CAPTURE_YEAR":2005,"AREA_HA":97.22,"tier":"3_any_IBM_in_burn","ha_clipped":12.34},"geometry":{"type":"Polygon","coordinates":[[[-116.681861332714675,49.166783175833537],[-116.680940789694219,49.166599329479951],[-116.679094919793457,49.165418194148231],[-116.679021319476732,49.164930301775016],[-116.680927504366252,49.162577325435599],[-116.681240741264489,49.162684022063225],[-116.681658257047502,49.162920534099307],[-116.681985096777154,49.163131276602215],[-116.682313569766933,49.163340234959357],[-116.682642264953756,49.163549338439644],[-116.682971182343735,49.163758587040739],[-116.683189828937742,49.163969981863389],[-116.683629690946844,49.16417748390311],[-116.684070035127888,49.164385216355825],[-116.68429683538676,49.164590053438744],[-116.684413744846893,49.164867648930539],[-116.684753942235517,49.165070089915716],[-116.685097898462644,49.165342107738915],[-116.685446462434939,49.165683748724923],[-116.6855488226727,49.165803829059129],[-116.681861332714675,49.166783175833537]]]}},
{"type":"Feature","properties":{"POLYGON_NUMBER":4113252004.0,"PEST_SEVERITY_CODE":"M","CAPTURE_YEAR":2004,"AREA_HA":20.82,"tier":"3_any_IBM_in_burn","ha_clipped":11.01},"geometry":{"type":"Polygon","coordinates":[[[-116.668333781868782,49.167188377006219],[-116.668237256277621,49.167874198731418],[-116.667462644143583,49.168781166490156],[-116.666496740760834,49.169764731438832],[-116.665755765420869,49.171414598012781],[-116.664528692208677,49.172653966260889],[-116.66283358063707,49.173021777604475],[-116.661791186583173,49.172750017580924],[-116.661354493634377,49.171349108315873],[-116.661408924582176,49.171233888924917],[-116.661690512532232,49.171050983795993],[-116.662170241749919,49.170827822319147],[-116.662768053443187,49.17083399091586],[-116.663125774565785,49.170989152385388],[-116.663601650436675,49.171145140705342],[-116.664076700070936,49.17114978123297],[-116.664550825657216,49.171154547963859],[-116.664905601824373,49.170856698014262],[-116.664905666392286,49.170479927905618],[-116.664905718960625,49.170178520821992],[-116.665023843673566,49.169878732446527],[-116.665259793281962,49.169580886084589],[-116.665377670334536,49.169281620596408],[-116.665493811635002,49.168906122038209],[-116.665487438536061,49.16860017750215],[-116.665599476358665,49.168296343990995],[-116.665711619262609,49.167992256185755],[-116.666061892754897,49.167770438096596],[-116.666413125459258,49.167625601571117],[-116.666761105396361,49.167327609037862],[-116.66711005634879,49.167106608183694],[-116.667458560752806,49.166885885304573],[-116.667807736131977,49.166742146015991],[-116.667873492628189,49.166685808911907],[-116.668333781868782,49.167188377006219]]]}},
{"type":"Feature","properties":{"POLYGON_NUMBER":5499252006.0,"PEST_SEVERITY_CODE":"T","CAPTURE_YEAR":2006,"AREA_HA":30.11,"tier":"3_any_IBM_in_burn","ha_clipped":3.0},"geometry":{"type":"Polygon","coordinates":[[[-116.668577468843324,49.166575186768874],[-116.667929935225942,49.168466861791408],[-116.665489714199552,49.168709422510737],[-116.665487438536061,49.16860017750215],[-116.665599476358665,49.168296343990995],[-116.665711619262609,49.167992256185755],[-116.666061892754897,49.167770438096596],[-116.666413125459258,49.167625601571117],[-116.666761105396361,49.167327609037862],[-116.66711005634879,49.167106608183694],[-116.667458560752806,49.166885885304573],[-116.667807736131977,49.166742146015991],[-116.668154260724549,49.166445258009915],[-116.668386599974255,49.16622503490909],[-116.668618245911432,49.165929341373108],[-116.668703173854183,49.16590474970716],[-116.668577468843324,49.166575186768874]]]}},
{"type":"Feature","properties":{"POLYGON_NUMBER":6232432007.0,"PEST_SEVERITY_CODE":"L","CAPTURE_YEAR":2007,"AREA_HA":28.0,"tier":"3_any_IBM_in_burn","ha_clipped":21.43},"geometry":{"type":"Polygon","coordinates":[[[-116.682558315885345,49.187507494490795],[-116.681928870658126,49.18494789025344],[-116.681891183053324,49.182845317010155],[-116.682167201876965,49.18131405145828],[-116.682444697181538,49.180856947453378],[-116.683138681779312,49.179897006072004],[-116.684981154539074,49.179782538699001],[-116.685754144587705,49.181489506436392],[-116.685659225043693,49.181763521894894],[-116.685666393899638,49.182124974227655],[-116.685673588845845,49.182486846275914],[-116.685680770928343,49.182849125573341],[-116.685686538136835,49.183139253987498],[-116.685692311216187,49.183429627923068],[-116.685700965388406,49.183865696550434],[-116.685599891781905,49.184158948636998],[-116.685391679266772,49.18445487195811],[-116.685398969376976,49.184819829107525],[-116.685408105370641,49.185186807796143],[-116.685204050474937,49.185488685167932],[-116.685001475711942,49.18579328764455],[-116.684903297539663,49.186021291339834],[-116.685125029960759,49.186310744455433],[-116.685230744623581,49.186306169622895],[-116.685029412348698,49.186614330268625],[-116.684829939705949,49.186998520272972],[-116.684839977976054,49.187298915201438],[-116.684850022571595,49.187599828058431],[-116.684647019534765,49.187911710696753],[-116.684550182379596,49.188219257478423],[-116.684236607521612,49.188462701604109],[-116.68392188416054,49.18870702574749],[-116.683493722163277,49.188805503900305],[-116.683313686610731,49.188814890541444],[-116.682558315885345,49.187507494490795]]]}},
{"type":"Feature","properties":{"POLYGON_NUMBER":753772008.0,"PEST_SEVERITY_CODE":"L","CAPTURE_YEAR":2008,"AREA_HA":145.03,"tier":"3_any_IBM_in_burn","ha_clipped":118.87},"geometry":{"type":"Polygon","coordinates":[[[-116.678648825429647,49.17041656308578],[-116.678718549076876,49.170759283512929],[-116.67903176675668,49.171056274178667],[-116.679379697037774,49.171170474299352],[-116.680284278849584,49.171353142796143],[-116.680910426465999,49.171238816590559],[-116.682093042117444,49.170850221871135],[-116.682441021246362,49.171032949721621],[-116.683450137515521,49.171512610605198],[-116.684807468065387,49.172586261706336],[-116.685468893807482,49.17334014180269],[-116.68512154183837,49.174345534974691],[-116.68501772865315,49.175373737802119],[-116.68512264333684,49.176356201451036],[-116.685505797450659,49.177155827275641],[-116.686476804290507,49.17750498102933],[-116.68645673759498,49.177531863956268],[-116.686349558815508,49.177816342986844],[-116.686242364345532,49.178100893173472],[-116.68624088341852,49.178384618699567],[-116.686239049759308,49.178739188431827],[-116.685921215725855,49.1789550892886],[-116.685821152389366,49.179242565173809],[-116.686144643569904,49.179525877643805],[-116.686362234441575,49.179810251715018],[-116.686472559526294,49.180024168068584],[-116.686478649013239,49.180311211032148],[-116.686378855122456,49.180599890553538],[-116.686278922973031,49.180888975602038],[-116.685966555610591,49.181181475083335],[-116.685759840879058,49.181473062179577],[-116.685659225043693,49.181763521894894],[-116.685666393899638,49.182124974227655],[-116.685673588845845,49.182486846275914],[-116.685680770928343,49.182849125573341],[-116.685686538136835,49.183139253987498],[-116.685692311216187,49.183429627923068],[-116.685700965388406,49.183865696550434],[-116.685686951137072,49.183906357315223],[-116.684918179677879,49.184261804819968],[-116.683491497935108,49.184307737802328],[-116.683247830765978,49.184147842723533],[-116.678966648014963,49.181589423429905],[-116.678792123042129,49.180287083643378],[-116.67882651755356,49.179327445088951],[-116.677678093181243,49.178779216006319],[-116.675381171696955,49.177294301969802],[-116.672666918850496,49.175877918214567],[-116.669256944984909,49.174233020530714],[-116.668665309683007,49.173341950662781],[-116.669534954322742,49.172862102156266],[-116.671169752855192,49.171696749161434],[-116.671134770289299,49.17094274627874],[-116.670334505785405,49.170440122938935],[-116.672004077930822,49.169526089265311],[-116.673430268877908,49.169228957751479],[-116.675065237958947,49.16916027638463],[-116.675900116478928,49.16913735504297],[-116.677326272621627,49.168840175610505],[-116.677917705600606,49.169000046633165],[-116.678822382487567,49.169502602646617],[-116.678648825429647,49.17041656308578]]]}},
{"type":"Feature","properties":{"POLYGON_NUMBER":754222008.0,"PEST_SEVERITY_CODE":"M","CAPTURE_YEAR":2008,"AREA_HA":43.89,"tier":"3_any_IBM_in_burn","ha_clipped":16.61},"geometry":{"type":"Polygon","coordinates":[[[-116.679794912628225,49.166075211073874],[-116.681011933127664,49.165092560870484],[-116.682437444463702,49.163767136651494],[-116.682715595932322,49.163595989915486],[-116.682971182343735,49.163758587040739],[-116.683189828937742,49.163969981863389],[-116.683629690946844,49.16417748390311],[-116.684070035127888,49.164385216355825],[-116.68429683538676,49.164590053438744],[-116.684413744846893,49.164867648930539],[-116.684753942235517,49.165070089915716],[-116.685097898462644,49.165342107738915],[-116.685446462434939,49.165683748724923],[-116.685680991227429,49.165958876984426],[-116.686045294161488,49.166724581218588],[-116.686056731584571,49.16707692467201],[-116.686166770299224,49.167292385065302],[-116.686268545099182,49.167584086192733],[-116.686260014959771,49.167947422453032],[-116.686253200006476,49.168237743459393],[-116.686029622106787,49.168526639608721],[-116.686022928833296,49.168816417194698],[-116.686014571647164,49.16917819718892],[-116.686013288161391,49.169233850121216],[-116.68494465795483,49.168953329758608],[-116.683692006496685,49.168336634878749],[-116.681639277530437,49.167651499291679],[-116.68014319420999,49.167034796183188],[-116.679794912628225,49.166075211073874]]]}},
{"type":"Feature","properties":{"POLYGON_NUMBER":605922010.0,"PEST_SEVERITY_CODE":"T","CAPTURE_YEAR":2010,"AREA_HA":18.86,"tier":"3_any_IBM_in_burn","ha_clipped":18.84},"geometry":{"type":"Polygon","coordinates":[[[-116.673966041600949,49.174928511239919],[-116.672559535669976,49.173457467367882],[-116.67244370683666,49.172299639073245],[-116.673335114291049,49.171344293470348],[-116.674350071466122,49.170858795999301],[-116.675000098843341,49.170936207239826],[-116.675003857318345,49.170956219586678],[-116.674983059306967,49.171055113764822],[-116.674942811332528,49.17111347103129],[-116.67487251579648,49.171176240250766],[-116.674871832725998,49.171279682148089],[-116.674900961805875,49.171414693208185],[-116.674960043462391,49.171558785698103],[-116.675019265564202,49.171680390438688],[-116.675078699983743,49.171770515572909],[-116.675058197269394,49.171824426542301],[-116.675038239474745,49.171860352359616],[-116.674977552078531,49.171896164663352],[-116.67491721106623,49.171945472515368],[-116.674826646652761,49.172026171430204],[-116.674816490544458,49.172071122379037],[-116.674825977048599,49.172129614374967],[-116.674855363528479,49.172224151515486],[-116.674955086478874,49.172314388056492],[-116.675154369548082,49.172458872216509],[-116.675423777015709,49.172630543527553],[-116.675613010360848,49.172801990463064],[-116.675811679264768,49.172973459189393],[-116.675891467746396,49.173032150218688],[-116.675931182573905,49.173122219537632],[-116.67600003703383,49.173279827605505],[-116.676010069881201,49.173320334279488],[-116.676095305774254,49.173465376067135],[-116.675803539416293,49.174912370537513],[-116.676529285723333,49.174975537532866],[-116.676559016963992,49.175071474387885],[-116.676608150734239,49.17522903548344],[-116.677289114316252,49.175212946268644],[-116.67823088404262,49.175179596846021],[-116.67858267114056,49.175154231193858],[-116.678655686485115,49.175160584528953],[-116.678658075234139,49.175148734481979],[-116.678811702395507,49.175136233798646],[-116.678877968182832,49.17514713882408],[-116.679342374158253,49.175339041650034],[-116.680733462687087,49.175804386538132],[-116.681054691803254,49.176377493272447],[-116.68080658829237,49.176958457034679],[-116.680003032030513,49.177261565051317],[-116.677648593791886,49.177458407214601],[-116.675439398033674,49.177151375162552],[-116.674540098730247,49.176413149972362],[-116.673966041600949,49.174928511239919]]]}},
{"type":"Feature","properties":{"POLYGON_NUMBER":5499542006.0,"PEST_SEVERITY_CODE":"M","CAPTURE_YEAR":2006,"AREA_HA":45.86,"tier":"3_any_IBM_in_burn","ha_clipped":4.4},"geometry":{"type":"Polygon","coordinates":[[[-116.679822390238598,49.162689434796135],[-116.676455355838925,49.16203237764536],[-116.67476054115366,49.161177554327892],[-116.675120246450604,49.160308855125272],[-116.675206973798595,49.160345030267919],[-116.675645919912853,49.160527840232213],[-116.676081748882439,49.160713518330809],[-116.676515809200239,49.160822786770623],[-116.676948203845939,49.161001197413448],[-116.677274624408057,49.161086908622899],[-116.677707706671498,49.16125212790368],[-116.678248056437198,49.161419617994518],[-116.678678116319972,49.16158375244715],[-116.678996547755446,49.161820896285541],[-116.679423992162782,49.161983846077042],[-116.679850092991614,49.162146277427674],[-116.680274850213621,49.162308190353762],[-116.680809252221962,49.162537045342035],[-116.681240741264489,49.162684022063225],[-116.681658257047502,49.162920534099307],[-116.681832981032514,49.16303319445543],[-116.679822390238598,49.162689434796135]]]}},
{"type":"Feature","properties":{"POLYGON_NUMBER":5499512006.0,"PEST_SEVERITY_CODE":"T","CAPTURE_YEAR":2006,"AREA_HA":22.96,"tier":"3_any_IBM_in_burn","ha_clipped":4.39},"geometry":{"type":"Polygon","coordinates":[[[-116.668919555977567,49.160918080527608],[-116.671903489105532,49.161596755894188],[-116.673736857172955,49.162496989199987],[-116.670673939924299,49.162663699810665],[-116.669285129977865,49.162771003059603],[-116.669200756299219,49.162658702692426],[-116.668851752463183,49.162417555028853],[-116.668619151739151,49.162108141981804],[-116.668620673049219,49.161737625433524],[-116.668738805069111,49.161448457402805],[-116.668856756951513,49.161159763871439],[-116.668854419553099,49.160901823345824],[-116.668919555977567,49.160918080527608]]]}}
]
}
