<?xml version="1.0" encoding="UTF-8"?>
<kml xmlns="http://www.opengis.net/kml/2.2"><Document>
<name>Beetle plot search area</name>
<Placemark><name>poly 6232882007 sev S 2007</name><description>tier 1_moderate_severe_in_burn</description><Polygon><outerBoundaryIs><LinearRing><coordinates>-116.685285,49.173246,0 -116.685390,49.173909,0 -116.684904,49.174686,0 -116.684037,49.175806,0 -116.682647,49.176149,0 -116.681187,49.176172,0 -116.679031,49.176149,0 -116.678508,49.174824,0 -116.678366,49.172927,0 -116.678364,49.171030,0 -116.679059,49.170733,0 -116.680553,49.170253,0 -116.681596,49.170207,0 -116.682289,49.168836,0 -116.683435,49.168264,0 -116.684652,49.168401,0 -116.686010,49.169382,0 -116.686008,49.169467,0 -116.686001,49.169756,0 -116.685886,49.170044,0 -116.685880,49.170332,0 -116.685873,49.170620,0 -116.685867,49.170908,0 -116.685968,49.171195,0 -116.685964,49.171553,0 -116.685962,49.171839,0 -116.685960,49.172196,0 -116.685958,49.172553,0 -116.685956,49.172838,0 -116.685862,49.173083,0 -116.685285,49.173246,0</coordinates></LinearRing></outerBoundaryIs></Polygon></Placemark>
<Placemark><name>poly 4113252004 sev M 2004</name><description>tier 1_moderate_severe_in_burn</description><Polygon><outerBoundaryIs><LinearRing><coordinates>-116.668334,49.167188,0 -116.668237,49.167874,0 -116.667463,49.168781,0 -116.666497,49.169765,0 -116.665756,49.171415,0 -116.664529,49.172654,0 -116.662834,49.173022,0 -116.661791,49.172750,0 -116.661354,49.171349,0 -116.661409,49.171234,0 -116.661691,49.171051,0 -116.662170,49.170828,0 -116.662768,49.170834,0 -116.663126,49.170989,0 -116.663602,49.171145,0 -116.664077,49.171150,0 -116.664551,49.171155,0 -116.664906,49.170857,0 -116.664906,49.170480,0 -116.664906,49.170179,0 -116.665024,49.169879,0 -116.665260,49.169581,0 -116.665378,49.169282,0 -116.665494,49.168906,0 -116.665487,49.168600,0 -116.665599,49.168296,0 -116.665712,49.167992,0 -116.666062,49.167770,0 -116.666413,49.167626,0 -116.666761,49.167328,0 -116.667110,49.167107,0 -116.667459,49.166886,0 -116.667808,49.166742,0 -116.667873,49.166686,0 -116.668334,49.167188,0</coordinates></LinearRing></outerBoundaryIs></Polygon></Placemark>
<Placemark><name>poly 754222008 sev M 2008</name><description>tier 1_moderate_severe_in_burn</description><Polygon><outerBoundaryIs><LinearRing><coordinates>-116.679795,49.166075,0 -116.681012,49.165093,0 -116.682437,49.163767,0 -116.682716,49.163596,0 -116.682971,49.163759,0 -116.683190,49.163970,0 -116.683630,49.164177,0 -116.684070,49.164385,0 -116.684297,49.164590,0 -116.684414,49.164868,0 -116.684754,49.165070,0 -116.685098,49.165342,0 -116.685446,49.165684,0 -116.685681,49.165959,0 -116.686045,49.166725,0 -116.686057,49.167077,0 -116.686167,49.167292,0 -116.686269,49.167584,0 -116.686260,49.167947,0 -116.686253,49.168238,0 -116.686030,49.168527,0 -116.686023,49.168816,0 -116.686015,49.169178,0 -116.686013,49.169234,0 -116.684945,49.168953,0 -116.683692,49.168337,0 -116.681639,49.167651,0 -116.680143,49.167035,0 -116.679795,49.166075,0</coordinates></LinearRing></outerBoundaryIs></Polygon></Placemark>
<Placemark><name>poly 5499542006 sev M 2006</name><description>tier 1_moderate_severe_in_burn</description><Polygon><outerBoundaryIs><LinearRing><coordinates>-116.679822,49.162689,0 -116.676455,49.162032,0 -116.674761,49.161178,0 -116.675120,49.160309,0 -116.675207,49.160345,0 -116.675646,49.160528,0 -116.676082,49.160714,0 -116.676516,49.160823,0 -116.676948,49.161001,0 -116.677275,49.161087,0 -116.677708,49.161252,0 -116.678248,49.161420,0 -116.678678,49.161584,0 -116.678997,49.161821,0 -116.679424,49.161984,0 -116.679850,49.162146,0 -116.680275,49.162308,0 -116.680809,49.162537,0 -116.681241,49.162684,0 -116.681658,49.162921,0 -116.681833,49.163033,0 -116.679822,49.162689,0</coordinates></LinearRing></outerBoundaryIs></Polygon></Placemark>
<Placemark><name>poly 6232882007 sev S 2007</name><description>tier 2_buffered_100m</description><Polygon><outerBoundaryIs><LinearRing><coordinates>-116.685260,49.176213,0 -116.685197,49.176286,0 -116.685125,49.176354,0 -116.685043,49.176418,0 -116.684952,49.176476,0 -116.684854,49.176529,0 -116.684748,49.176575,0 -116.684637,49.176615,0 -116.684520,49.176648,0 -116.683130,49.176991,0 -116.682983,49.177021,0 -116.682833,49.177040,0 -116.682680,49.177048,0 -116.681220,49.177071,0 -116.681165,49.177071,0 -116.679009,49.177049,0 -116.678872,49.177043,0 -116.678737,49.177028,0 -116.678604,49.177004,0 -116.678476,49.176972,0 -116.678353,49.176931,0 -116.678238,49.176883,0 -116.678130,49.176827,0 -116.678031,49.176765,0 -116.677942,49.176696,0 -116.677864,49.176622,0 -116.677798,49.176543,0 -116.677744,49.176461,0 -116.677703,49.176375,0 -116.677180,49.175049,0 -116.677152,49.174959,0 -116.677138,49.174868,0 -116.676996,49.172971,0 -116.676995,49.172928,0 -116.676992,49.171031,0 -116.676999,49.170941,0 -116.677019,49.170853,0 -116.677052,49.170766,0 -116.677099,49.170682,0 -116.677157,49.170602,0 -116.677228,49.170525,0 -116.677310,49.170454,0 -116.677402,49.170388,0 -116.677504,49.170329,0 -116.677615,49.170277,0 -116.678309,49.169979,0 -116.678455,49.169925,0 -116.679949,49.169445,0 -116.680072,49.169410,0 -116.680198,49.169384,0 -116.680329,49.169365,0 -116.680461,49.169355,0 -116.680584,49.169350,0 -116.680987,49.168553,0 -116.681036,49.168469,0 -116.681099,49.168388,0 -116.681173,49.168313,0 -116.681258,49.168242,0 -116.681354,49.168178,0 -116.681459,49.168120,0 -116.682605,49.167548,0 -116.682721,49.167496,0 -116.682844,49.167452,0 -116.682974,49.167417,0 -116.683109,49.167390,0 -116.683247,49.167373,0 -116.683387,49.167365,0 -116.683528,49.167367,0 -116.683667,49.167378,0 -116.684884,49.167515,0 -116.685011,49.167533,0 -116.685135,49.167559,0 -116.685254,49.167593,0 -116.685368,49.167634,0 -116.685476,49.167682,0 -116.685576,49.167736,0 -116.685668,49.167797,0 -116.686254,49.168220,0 -116.686253,49.168238,0 -116.686030,49.168527,0 -116.686023,49.168816,0 -116.686015,49.169178,0 -116.686008,49.169467,0 -116.686001,49.169756,0 -116.685886,49.170044,0 -116.685880,49.170332,0 -116.685873,49.170620,0 -116.685867,49.170908,0 -116.685968,49.171195,0 -116.685964,49.171553,0 -116.685962,49.171839,0 -116.685960,49.172196,0 -116.685958,49.172553,0 -116.685956,49.172838,0 -116.685846,49.173123,0 -116.685737,49.173408,0 -116.685628,49.173693,0 -116.685411,49.173979,0 -116.685302,49.174264,0 -116.685300,49.174620,0 -116.685193,49.174834,0 -116.685193,49.175190,0 -116.685194,49.175475,0 -116.685406,49.175760,0 -116.685612,49.175759,0 -116.685260,49.176213,0</coordinates></LinearRing></outerBoundaryIs></Polygon></Placemark>
<Placemark><name>poly 4113252004 sev M 2004</name><description>tier 2_buffered_100m</description><Polygon><outerBoundaryIs><LinearRing><coordinates>-116.669578,49.166809,0 -116.669632,49.166897,0 -116.669671,49.166988,0 -116.669696,49.167082,0 -116.669705,49.167176,0 -116.669700,49.167271,0 -116.669603,49.167957,0 -116.669583,49.168050,0 -116.669547,49.168141,0 -116.669498,49.168229,0 -116.669434,49.168314,0 -116.668660,49.169221,0 -116.668616,49.169268,0 -116.667757,49.170143,0 -116.667072,49.171669,0 -116.667028,49.171751,0 -116.666973,49.171829,0 -116.666906,49.171904,0 -116.665679,49.173144,0 -116.665602,49.173214,0 -116.665515,49.173279,0 -116.665418,49.173339,0 -116.665314,49.173392,0 -116.665202,49.173438,0 -116.665083,49.173477,0 -116.664960,49.173508,0 -116.663265,49.173876,0 -116.663133,49.173900,0 -116.662998,49.173915,0 -116.662862,49.173921,0 -116.662725,49.173918,0 -116.662589,49.173907,0 -116.662456,49.173887,0 -116.662327,49.173858,0 -116.661284,49.173586,0 -116.661161,49.173549,0 -116.661043,49.173504,0 -116.660933,49.173452,0 -116.660831,49.173393,0 -116.660739,49.173327,0 -116.660657,49.173256,0 -116.660586,49.173180,0 -116.660576,49.173166,0 -116.660653,49.173105,0 -116.660787,49.172879,0 -116.660794,49.172501,0 -116.661018,49.172196,0 -116.661125,49.171891,0 -116.661114,49.171508,0 -116.661340,49.171279,0 -116.661691,49.171051,0 -116.662170,49.170828,0 -116.662768,49.170834,0 -116.663126,49.170989,0 -116.663602,49.171145,0 -116.664077,49.171150,0 -116.664551,49.171155,0 -116.664906,49.170857,0 -116.664906,49.170480,0 -116.664906,49.170179,0 -116.665024,49.169879,0 -116.665260,49.169581,0 -116.665378,49.169282,0 -116.665494,49.168906,0 -116.665487,49.168600,0 -116.665599,49.168296,0 -116.665712,49.167992,0 -116.666062,49.167770,0 -116.666413,49.167626,0 -116.666761,49.167328,0 -116.667110,49.167107,0 -116.667459,49.166886,0 -116.667808,49.166742,0 -116.668154,49.166445,0 -116.668387,49.166225,0 -116.668617,49.165931,0 -116.668693,49.165965,0 -116.668796,49.166020,0 -116.668891,49.166082,0 -116.668975,49.166150,0 -116.669049,49.166223,0 -116.669510,49.166725,0 -116.669578,49.166809,0</coordinates></LinearRing></outerBoundaryIs></Polygon></Placemark>
<Placemark><name>poly 754222008 sev M 2008</name><description>tier 2_buffered_100m</description><Polygon><outerBoundaryIs><LinearRing><coordinates>-116.678435,49.166194,0 -116.678424,49.166102,0 -116.678427,49.166011,0 -116.678444,49.165920,0 -116.678475,49.165831,0 -116.678519,49.165744,0 -116.678577,49.165661,0 -116.678648,49.165582,0 -116.678730,49.165508,0 -116.679918,49.164549,0 -116.681317,49.163249,0 -116.681402,49.163177,0 -116.681499,49.163111,0 -116.681732,49.162968,0 -116.681985,49.163131,0 -116.682314,49.163340,0 -116.682642,49.163549,0 -116.682971,49.163759,0 -116.683190,49.163970,0 -116.683630,49.164177,0 -116.684070,49.164385,0 -116.684297,49.164590,0 -116.684414,49.164868,0 -116.684754,49.165070,0 -116.685098,49.165342,0 -116.685446,49.165684,0 -116.685681,49.165959,0 -116.686045,49.166725,0 -116.686057,49.167077,0 -116.686167,49.167292,0 -116.686269,49.167584,0 -116.686260,49.167947,0 -116.686253,49.168238,0 -116.686030,49.168527,0 -116.686023,49.168816,0 -116.686015,49.169178,0 -116.686008,49.169467,0 -116.686001,49.169756,0 -116.685886,49.170044,0 -116.685884,49.170129,0 -116.685758,49.170118,0 -116.685629,49.170097,0 -116.685503,49.170069,0 -116.684435,49.169788,0 -116.684325,49.169756,0 -116.684220,49.169717,0 -116.684121,49.169673,0 -116.682964,49.169103,0 -116.681017,49.168453,0 -116.680909,49.168413,0 -116.679413,49.167796,0 -116.679304,49.167746,0 -116.679203,49.167690,0 -116.679111,49.167627,0 -116.679028,49.167559,0 -116.678956,49.167485,0 -116.678895,49.167408,0 -116.678846,49.167327,0 -116.678809,49.167243,0 -116.678460,49.166283,0 -116.678435,49.166194,0</coordinates></LinearRing></outerBoundaryIs></Polygon></Placemark>
<Placemark><name>poly 5499542006 sev M 2006</name><description>tier 2_buffered_100m</description><Polygon><outerBoundaryIs><LinearRing><coordinates>-116.679431,49.163552,0 -116.676064,49.162895,0 -116.675946,49.162867,0 -116.675831,49.162833,0 -116.675722,49.162793,0 -116.675619,49.162745,0 -116.673924,49.161891,0 -116.673822,49.161833,0 -116.673728,49.161770,0 -116.673644,49.161700,0 -116.673571,49.161626,0 -116.673510,49.161547,0 -116.673461,49.161465,0 -116.673424,49.161380,0 -116.673400,49.161293,0 -116.673390,49.161204,0 -116.673392,49.161116,0 -116.673408,49.161028,0 -116.673437,49.160942,0 -116.673797,49.160073,0 -116.673838,49.159989,0 -116.673893,49.159908,0 -116.673959,49.159830,0 -116.674036,49.159758,0 -116.674043,49.159753,0 -116.674323,49.159895,0 -116.674766,49.160161,0 -116.675207,49.160345,0 -116.675646,49.160528,0 -116.676082,49.160714,0 -116.676516,49.160823,0 -116.676948,49.161001,0 -116.677275,49.161087,0 -116.677708,49.161252,0 -116.678248,49.161420,0 -116.678678,49.161584,0 -116.678997,49.161821,0 -116.679424,49.161984,0 -116.679850,49.162146,0 -116.680275,49.162308,0 -116.680809,49.162537,0 -116.681241,49.162684,0 -116.681658,49.162921,0 -116.681985,49.163131,0 -116.682314,49.163340,0 -116.682642,49.163549,0 -116.682816,49.163660,0 -116.682733,49.163712,0 -116.682628,49.163766,0 -116.682516,49.163813,0 -116.682397,49.163853,0 -116.682274,49.163885,0 -116.682146,49.163909,0 -116.682015,49.163925,0 -116.681882,49.163932,0 -116.681749,49.163931,0 -116.681617,49.163922,0 -116.681487,49.163904,0 -116.679476,49.163560,0 -116.679431,49.163552,0</coordinates></LinearRing></outerBoundaryIs></Polygon></Placemark>
<Placemark><name>poly 4199662004 sev L 2004</name><description>tier 3_any_IBM_in_burn</description><Polygon><outerBoundaryIs><LinearRing><coordinates>-116.672438,49.175046,0 -116.673585,49.175326,0 -116.675166,49.175550,0 -116.675095,49.176470,0 -116.674213,49.176836,0 -116.673143,49.177441,0 -116.671969,49.177852,0 -116.669648,49.178723,0 -116.668265,49.179302,0 -116.667622,49.179156,0 -116.667232,49.178245,0 -116.667756,49.176623,0 -116.668061,49.176139,0 -116.668766,49.175042,0 -116.669549,49.174644,0 -116.672438,49.175046,0</coordinates></LinearRing></outerBoundaryIs></Polygon></Placemark>
<Placemark><name>poly 4863672005 sev L 2005</name><description>tier 3_any_IBM_in_burn</description><Polygon><outerBoundaryIs><LinearRing><coordinates>-116.684760,49.172494,0 -116.683657,49.171334,0 -116.684217,49.170450,0 -116.685697,49.169517,0 -116.686007,49.169485,0 -116.686001,49.169756,0 -116.685886,49.170044,0 -116.685880,49.170332,0 -116.685873,49.170620,0 -116.685867,49.170908,0 -116.685968,49.171195,0 -116.685964,49.171553,0 -116.685962,49.171839,0 -116.685960,49.172196,0 -116.685958,49.172553,0 -116.685956,49.172838,0 -116.685917,49.172940,0 -116.684760,49.172494,0</coordinates></LinearRing></outerBoundaryIs></Polygon></Placemark>
<Placemark><name>poly 6232882007 sev S 2007</name><description>tier 3_any_IBM_in_burn</description><Polygon><outerBoundaryIs><LinearRing><coordinates>-116.685285,49.173246,0 -116.685390,49.173909,0 -116.684904,49.174686,0 -116.684037,49.175806,0 -116.682647,49.176149,0 -116.681187,49.176172,0 -116.679031,49.176149,0 -116.678508,49.174824,0 -116.678366,49.172927,0 -116.678364,49.171030,0 -116.679059,49.170733,0 -116.680553,49.170253,0 -116.681596,49.170207,0 -116.682289,49.168836,0 -116.683435,49.168264,0 -116.684652,49.168401,0 -116.686010,49.169382,0 -116.686008,49.169467,0 -116.686001,49.169756,0 -116.685886,49.170044,0 -116.685880,49.170332,0 -116.685873,49.170620,0 -116.685867,49.170908,0 -116.685968,49.171195,0 -116.685964,49.171553,0 -116.685962,49.171839,0 -116.685960,49.172196,0 -116.685958,49.172553,0 -116.685956,49.172838,0 -116.685862,49.173083,0 -116.685285,49.173246,0</coordinates></LinearRing></outerBoundaryIs></Polygon></Placemark>
<Placemark><name>poly 4112962004 sev L 2004</name><description>tier 3_any_IBM_in_burn</description><Polygon><outerBoundaryIs><LinearRing><coordinates>-116.678494,49.179550,0 -116.678619,49.180925,0 -116.678575,49.181153,0 -116.678852,49.181916,0 -116.680034,49.182014,0 -116.681103,49.182519,0 -116.681332,49.183163,0 -116.680779,49.184759,0 -116.679952,49.185569,0 -116.678234,49.186791,0 -116.675773,49.187280,0 -116.674605,49.186744,0 -116.674297,49.185955,0 -116.674137,49.185502,0 -116.674654,49.185013,0 -116.675863,49.184420,0 -116.676043,49.183672,0 -116.675330,49.183150,0 -116.674436,49.182844,0 -116.673019,49.182495,0 -116.672612,49.181860,0 -116.673061,49.180625,0 -116.674378,49.180018,0 -116.675339,49.179427,0 -116.677639,49.178855,0 -116.678494,49.179550,0</coordinates></LinearRing></outerBoundaryIs></Polygon></Placemark>
<Placemark><name>poly 4113342004 sev L 2004</name><description>tier 3_any_IBM_in_burn</description><Polygon><outerBoundaryIs><LinearRing><coordinates>-116.685698,49.167960,0 -116.683500,49.167824,0 -116.681888,49.167945,0 -116.681097,49.167648,0 -116.680911,49.167147,0 -116.681447,49.166011,0 -116.682986,49.164798,0 -116.683940,49.164324,0 -116.684070,49.164385,0 -116.684297,49.164590,0 -116.684414,49.164868,0 -116.684754,49.165070,0 -116.685098,49.165342,0 -116.685446,49.165684,0 -116.685681,49.165959,0 -116.686045,49.166725,0 -116.686057,49.167077,0 -116.686167,49.167292,0 -116.686269,49.167584,0 -116.686263,49.167827,0 -116.685698,49.167960,0</coordinates></LinearRing></outerBoundaryIs></Polygon></Placemark>
<Placemark><name>poly 4863822005 sev L 2005</name><description>tier 3_any_IBM_in_burn</description><Polygon><outerBoundaryIs><LinearRing><coordinates>-116.681861,49.166783,0 -116.680941,49.166599,0 -116.679095,49.165418,0 -116.679021,49.164930,0 -116.680928,49.162577,0 -116.681241,49.162684,0 -116.681658,49.162921,0 -116.681985,49.163131,0 -116.682314,49.163340,0 -116.682642,49.163549,0 -116.682971,49.163759,0 -116.683190,49.163970,0 -116.683630,49.164177,0 -116.684070,49.164385,0 -116.684297,49.164590,0 -116.684414,49.164868,0 -116.684754,49.165070,0 -116.685098,49.165342,0 -116.685446,49.165684,0 -116.685549,49.165804,0 -116.681861,49.166783,0</coordinates></LinearRing></outerBoundaryIs></Polygon></Placemark>
<Placemark><name>poly 4113252004 sev M 2004</name><description>tier 3_any_IBM_in_burn</description><Polygon><outerBoundaryIs><LinearRing><coordinates>-116.668334,49.167188,0 -116.668237,49.167874,0 -116.667463,49.168781,0 -116.666497,49.169765,0 -116.665756,49.171415,0 -116.664529,49.172654,0 -116.662834,49.173022,0 -116.661791,49.172750,0 -116.661354,49.171349,0 -116.661409,49.171234,0 -116.661691,49.171051,0 -116.662170,49.170828,0 -116.662768,49.170834,0 -116.663126,49.170989,0 -116.663602,49.171145,0 -116.664077,49.171150,0 -116.664551,49.171155,0 -116.664906,49.170857,0 -116.664906,49.170480,0 -116.664906,49.170179,0 -116.665024,49.169879,0 -116.665260,49.169581,0 -116.665378,49.169282,0 -116.665494,49.168906,0 -116.665487,49.168600,0 -116.665599,49.168296,0 -116.665712,49.167992,0 -116.666062,49.167770,0 -116.666413,49.167626,0 -116.666761,49.167328,0 -116.667110,49.167107,0 -116.667459,49.166886,0 -116.667808,49.166742,0 -116.667873,49.166686,0 -116.668334,49.167188,0</coordinates></LinearRing></outerBoundaryIs></Polygon></Placemark>
<Placemark><name>poly 5499252006 sev T 2006</name><description>tier 3_any_IBM_in_burn</description><Polygon><outerBoundaryIs><LinearRing><coordinates>-116.668577,49.166575,0 -116.667930,49.168467,0 -116.665490,49.168709,0 -116.665487,49.168600,0 -116.665599,49.168296,0 -116.665712,49.167992,0 -116.666062,49.167770,0 -116.666413,49.167626,0 -116.666761,49.167328,0 -116.667110,49.167107,0 -116.667459,49.166886,0 -116.667808,49.166742,0 -116.668154,49.166445,0 -116.668387,49.166225,0 -116.668618,49.165929,0 -116.668703,49.165905,0 -116.668577,49.166575,0</coordinates></LinearRing></outerBoundaryIs></Polygon></Placemark>
<Placemark><name>poly 6232432007 sev L 2007</name><description>tier 3_any_IBM_in_burn</description><Polygon><outerBoundaryIs><LinearRing><coordinates>-116.682558,49.187507,0 -116.681929,49.184948,0 -116.681891,49.182845,0 -116.682167,49.181314,0 -116.682445,49.180857,0 -116.683139,49.179897,0 -116.684981,49.179783,0 -116.685754,49.181490,0 -116.685659,49.181764,0 -116.685666,49.182125,0 -116.685674,49.182487,0 -116.685681,49.182849,0 -116.685687,49.183139,0 -116.685692,49.183430,0 -116.685701,49.183866,0 -116.685600,49.184159,0 -116.685392,49.184455,0 -116.685399,49.184820,0 -116.685408,49.185187,0 -116.685204,49.185489,0 -116.685001,49.185793,0 -116.684903,49.186021,0 -116.685125,49.186311,0 -116.685231,49.186306,0 -116.685029,49.186614,0 -116.684830,49.186999,0 -116.684840,49.187299,0 -116.684850,49.187600,0 -116.684647,49.187912,0 -116.684550,49.188219,0 -116.684237,49.188463,0 -116.683922,49.188707,0 -116.683494,49.188806,0 -116.683314,49.188815,0 -116.682558,49.187507,0</coordinates></LinearRing></outerBoundaryIs></Polygon></Placemark>
<Placemark><name>poly 753772008 sev L 2008</name><description>tier 3_any_IBM_in_burn</description><Polygon><outerBoundaryIs><LinearRing><coordinates>-116.678649,49.170417,0 -116.678719,49.170759,0 -116.679032,49.171056,0 -116.679380,49.171170,0 -116.680284,49.171353,0 -116.680910,49.171239,0 -116.682093,49.170850,0 -116.682441,49.171033,0 -116.683450,49.171513,0 -116.684807,49.172586,0 -116.685469,49.173340,0 -116.685122,49.174346,0 -116.685018,49.175374,0 -116.685123,49.176356,0 -116.685506,49.177156,0 -116.686477,49.177505,0 -116.686457,49.177532,0 -116.686350,49.177816,0 -116.686242,49.178101,0 -116.686241,49.178385,0 -116.686239,49.178739,0 -116.685921,49.178955,0 -116.685821,49.179243,0 -116.686145,49.179526,0 -116.686362,49.179810,0 -116.686473,49.180024,0 -116.686479,49.180311,0 -116.686379,49.180600,0 -116.686279,49.180889,0 -116.685967,49.181181,0 -116.685760,49.181473,0 -116.685659,49.181764,0 -116.685666,49.182125,0 -116.685674,49.182487,0 -116.685681,49.182849,0 -116.685687,49.183139,0 -116.685692,49.183430,0 -116.685701,49.183866,0 -116.685687,49.183906,0 -116.684918,49.184262,0 -116.683491,49.184308,0 -116.683248,49.184148,0 -116.678967,49.181589,0 -116.678792,49.180287,0 -116.678827,49.179327,0 -116.677678,49.178779,0 -116.675381,49.177294,0 -116.672667,49.175878,0 -116.669257,49.174233,0 -116.668665,49.173342,0 -116.669535,49.172862,0 -116.671170,49.171697,0 -116.671135,49.170943,0 -116.670335,49.170440,0 -116.672004,49.169526,0 -116.673430,49.169229,0 -116.675065,49.169160,0 -116.675900,49.169137,0 -116.677326,49.168840,0 -116.677918,49.169000,0 -116.678822,49.169503,0 -116.678649,49.170417,0</coordinates></LinearRing></outerBoundaryIs></Polygon></Placemark>
<Placemark><name>poly 754222008 sev M 2008</name><description>tier 3_any_IBM_in_burn</description><Polygon><outerBoundaryIs><LinearRing><coordinates>-116.679795,49.166075,0 -116.681012,49.165093,0 -116.682437,49.163767,0 -116.682716,49.163596,0 -116.682971,49.163759,0 -116.683190,49.163970,0 -116.683630,49.164177,0 -116.684070,49.164385,0 -116.684297,49.164590,0 -116.684414,49.164868,0 -116.684754,49.165070,0 -116.685098,49.165342,0 -116.685446,49.165684,0 -116.685681,49.165959,0 -116.686045,49.166725,0 -116.686057,49.167077,0 -116.686167,49.167292,0 -116.686269,49.167584,0 -116.686260,49.167947,0 -116.686253,49.168238,0 -116.686030,49.168527,0 -116.686023,49.168816,0 -116.686015,49.169178,0 -116.686013,49.169234,0 -116.684945,49.168953,0 -116.683692,49.168337,0 -116.681639,49.167651,0 -116.680143,49.167035,0 -116.679795,49.166075,0</coordinates></LinearRing></outerBoundaryIs></Polygon></Placemark>
<Placemark><name>poly 605922010 sev T 2010</name><description>tier 3_any_IBM_in_burn</description><Polygon><outerBoundaryIs><LinearRing><coordinates>-116.673966,49.174929,0 -116.672560,49.173457,0 -116.672444,49.172300,0 -116.673335,49.171344,0 -116.674350,49.170859,0 -116.675000,49.170936,0 -116.675004,49.170956,0 -116.674983,49.171055,0 -116.674943,49.171113,0 -116.674873,49.171176,0 -116.674872,49.171280,0 -116.674901,49.171415,0 -116.674960,49.171559,0 -116.675019,49.171680,0 -116.675079,49.171771,0 -116.675058,49.171824,0 -116.675038,49.171860,0 -116.674978,49.171896,0 -116.674917,49.171945,0 -116.674827,49.172026,0 -116.674816,49.172071,0 -116.674826,49.172130,0 -116.674855,49.172224,0 -116.674955,49.172314,0 -116.675154,49.172459,0 -116.675424,49.172631,0 -116.675613,49.172802,0 -116.675812,49.172973,0 -116.675891,49.173032,0 -116.675931,49.173122,0 -116.676000,49.173280,0 -116.676010,49.173320,0 -116.676095,49.173465,0 -116.675804,49.174912,0 -116.676529,49.174976,0 -116.676559,49.175071,0 -116.676608,49.175229,0 -116.677289,49.175213,0 -116.678231,49.175180,0 -116.678583,49.175154,0 -116.678656,49.175161,0 -116.678658,49.175149,0 -116.678812,49.175136,0 -116.678878,49.175147,0 -116.679342,49.175339,0 -116.680733,49.175804,0 -116.681055,49.176377,0 -116.680807,49.176958,0 -116.680003,49.177262,0 -116.677649,49.177458,0 -116.675439,49.177151,0 -116.674540,49.176413,0 -116.673966,49.174929,0</coordinates></LinearRing></outerBoundaryIs></Polygon></Placemark>
<Placemark><name>poly 5499542006 sev M 2006</name><description>tier 3_any_IBM_in_burn</description><Polygon><outerBoundaryIs><LinearRing><coordinates>-116.679822,49.162689,0 -116.676455,49.162032,0 -116.674761,49.161178,0 -116.675120,49.160309,0 -116.675207,49.160345,0 -116.675646,49.160528,0 -116.676082,49.160714,0 -116.676516,49.160823,0 -116.676948,49.161001,0 -116.677275,49.161087,0 -116.677708,49.161252,0 -116.678248,49.161420,0 -116.678678,49.161584,0 -116.678997,49.161821,0 -116.679424,49.161984,0 -116.679850,49.162146,0 -116.680275,49.162308,0 -116.680809,49.162537,0 -116.681241,49.162684,0 -116.681658,49.162921,0 -116.681833,49.163033,0 -116.679822,49.162689,0</coordinates></LinearRing></outerBoundaryIs></Polygon></Placemark>
<Placemark><name>poly 5499512006 sev T 2006</name><description>tier 3_any_IBM_in_burn</description><Polygon><outerBoundaryIs><LinearRing><coordinates>-116.668920,49.160918,0 -116.671903,49.161597,0 -116.673737,49.162497,0 -116.670674,49.162664,0 -116.669285,49.162771,0 -116.669201,49.162659,0 -116.668852,49.162418,0 -116.668619,49.162108,0 -116.668621,49.161738,0 -116.668739,49.161448,0 -116.668857,49.161160,0 -116.668854,49.160902,0 -116.668920,49.160918,0</coordinates></LinearRing></outerBoundaryIs></Polygon></Placemark>
</Document></kml>